{
  "type": "FeatureCollection",
  "features": [
    {
      "type": "Feature",
      "id": 0,
      "geometry": {
        "type": "Polygon",
        "coordinates": [
          [
            [
              -71.308028808129379,
              46.796176919258372
            ],
            [
              -71.307404375805575,
              46.795167767918571
            ],
            [
              -71.307189407300655,
              46.79523434445808
            ],
            [
              -71.307138224323296,
              46.795181784038995
            ],
            [
              -71.306948847307055,
              46.795227336405162
            ],
            [
              -71.30674411539762,
              46.794883940694461
            ],
            [
              -71.306897664329711,
              46.794771811008218
            ],
            [
              -71.306334651578723,
              46.794473965394602
            ],
            [
              -71.306068500096444,
              46.794715746077486
            ],
            [
              -71.306232285624006,
              46.794789331287092
            ],
            [
              -71.305612971597924,
              46.795349977199372
            ],
            [
              -71.305730692445863,
              46.795525177849093
            ],
            [
              -71.305628326491131,
              46.79555320990012
            ],
            [
              -71.305659036277547,
              46.795591753946439
            ],
            [
              -71.305331465222437,
              46.79570388192419
            ],
            [
              -71.305776757125486,
              46.796481763337049
            ],
            [
              -71.306032672012293,
              46.796422196239035
            ],
            [
              -71.306048026905501,
              46.796520306718264
            ],
            [
              -71.306672459229304,
              46.796415188340816
            ],
            [
              -71.306539383488158,
              46.796246998509794
            ],
            [
              -71.306498437106271,
              46.79625751038963
            ],
            [
              -71.305874004782467,
              46.79549364177425
            ],
            [
              -71.306667340931568,
              46.795279896779761
            ],
            [
              -71.307138224323296,
              46.796071800210136
            ],
            [
              -71.307261063468957,
              46.796029752533343
            ],
            [
              -71.306918137520654,
              46.79613136769602
            ],
            [
              -71.307030740070843,
              46.796324085580927
            ],
            [
              -71.307399257507839,
              46.796261014349128
            ],
            [
              -71.307445322187462,
              46.796320581625551
            ],
            [
              -71.308028808129379,
              46.796176919258372
            ]
          ]
        ]
      },
      "properties": {
        "FID": 0,
        "UNIQID": "VNTGQC01"
      }
    },
    {
      "type": "Feature",
      "id": 1,
      "geometry": {
        "type": "Polygon",
        "coordinates": [
          [
            [
              -71.303959761429155,
              46.795528681856275
            ],
            [
              -71.304732624387299,
              46.795020598433673
            ],
            [
              -71.303371157189488,
              46.794081507480747
            ],
            [
              -71.302603412529066,
              46.794600111973388
            ],
            [
              -71.303959761429155,
              46.795528681856275
            ]
          ]
        ]
      },
      "properties": {
        "FID": 1,
        "UNIQID": "VNTGQC02"
      }
    },
    {
      "type": "Feature",
      "id": 2,
      "geometry": {
        "type": "Polygon",
        "coordinates": [
          [
            [
              -71.3250657772452,
              46.676955593500558
            ],
            [
              -71.325900942241333,
              46.676439029902241
            ],
            [
              -71.325008179659278,
              46.675770030362358
            ],
            [
              -71.324880642147548,
              46.675854714306261
            ],
            [
              -71.32454739897176,
              46.675631712968588
            ],
            [
              -71.323847999713934,
              46.676120056471142
            ],
            [
              -71.3250657772452,
              46.676955593500558
            ]
          ]
        ]
      },
      "properties": {
        "FID": 2,
        "UNIQID": "QSCLLVS01"
      }
    },
    {
      "type": "Feature",
      "id": 3,
      "geometry": {
        "type": "Polygon",
        "coordinates": [
          [
            [
              -71.971534320805418,
              45.398562826680013
            ],
            [
              -71.971871518665253,
              45.398341666961841
            ],
            [
              -71.971412040262848,
              45.398013828610502
            ],
            [
              -71.971441684030736,
              45.397987809612253
            ],
            [
              -71.971371280081982,
              45.397940975385232
            ],
            [
              -71.971349047256055,
              45.397948781092431
            ],
            [
              -71.971056315048074,
              45.397758841911099
            ],
            [
              -71.97088956885365,
              45.397857714441322
            ],
            [
              -71.970696884362312,
              45.397712007494292
            ],
            [
              -71.970511610812949,
              45.397839501093486
            ],
            [
              -71.970630185884545,
              45.397933169676953
            ],
            [
              -71.97044861780617,
              45.398071070364466
            ],
            [
              -71.971408334791846,
              45.398747559428173
            ],
            [
              -71.97160843022516,
              45.398625271620212
            ],
            [
              -71.971534320805418,
              45.398562826680013
            ]
          ]
        ]
      },
      "properties": {
        "FID": 3,
        "UNIQID": "BITFSHB01"
      }
    },
    {
      "type": "Feature",
      "id": 4,
      "geometry": {
        "type": "Polygon",
        "coordinates": [
          [
            [
              -72.545519187659778,
              45.880037994313049
            ],
            [
              -72.545867038748668,
              45.879728762509714
            ],
            [
              -72.54589668251657,
              45.87974230554444
            ],
            [
              -72.545936516329689,
              45.879708770404804
            ],
            [
              -72.546027763552758,
              45.879753591404182
            ],
            [
              -72.546187098805206,
              45.879613001673448
            ],
            [
              -72.546241754502262,
              45.87964202251856
            ],
            [
              -72.546393678812734,
              45.879506591778345
            ],
            [
              -72.546430733522627,
              45.879523359411706
            ],
            [
              -72.546604890659012,
              45.8793685810654
            ],
            [
              -72.54640108975471,
              45.879255076670738
            ],
            [
              -72.546475199174452,
              45.879185426131954
            ],
            [
              -72.546100946604753,
              45.878984212973918
            ],
            [
              -72.54552289313078,
              45.879478215771897
            ],
            [
              -72.545595149815028,
              45.87951562050462
            ],
            [
              -72.545428403620605,
              45.879662659554739
            ],
            [
              -72.54523757186476,
              45.879563343747748
            ],
            [
              -72.545167167916006,
              45.879571082648177
            ],
            [
              -72.544792915346306,
              45.879909013582392
            ],
            [
              -72.54503006548947,
              45.880031545283636
            ],
            [
              -72.545211633567845,
              45.879872898924148
            ],
            [
              -72.545519187659778,
              45.880037994313049
            ]
          ]
        ]
      },
      "properties": {
        "FID": 4,
        "UNIQID": "CLGXDMD01"
      }
    },
    {
      "type": "Feature",
      "id": 5,
      "geometry": {
        "type": "Polygon",
        "coordinates": [
          [
            [
              -73.475616437674489,
              45.565995384035126
            ],
            [
              -73.476181080872522,
              45.565659378451357
            ],
            [
              -73.476237545192333,
              45.565676672905461
            ],
            [
              -73.477186851569044,
              45.56509112914059
            ],
            [
              -73.476713962890685,
              45.564698292561026
            ],
            [
              -73.476653969550895,
              45.5647304113782
            ],
            [
              -73.47661867935102,
              45.564690880523685
            ],
            [
              -73.476569273071178,
              45.564713116632767
            ],
            [
              -73.476286951472161,
              45.564505579272364
            ],
            [
              -73.475344703135434,
              45.565123247733162
            ],
            [
              -73.475436457655107,
              45.565212191432131
            ],
            [
              -73.475080026636348,
              45.565419726182078
            ],
            [
              -73.47487181445706,
              45.565273957806895
            ],
            [
              -73.474765943857435,
              45.565353018667487
            ],
            [
              -73.474882401517021,
              45.565429608770096
            ],
            [
              -73.47479417601734,
              45.565488904261677
            ],
            [
              -73.475418812555176,
              45.565975619056431
            ],
            [
              -73.475517625114833,
              45.565923735954236
            ],
            [
              -73.475616437674489,
              45.565995384035126
            ]
          ]
        ]
      },
      "properties": {
        "FID": 5,
        "UNIQID": "CLGXLGL10"
      }
    },
    {
      "type": "Feature",
      "id": 6,
      "geometry": {
        "type": "Polygon",
        "coordinates": [
          [
            [
              -73.428208024286405,
              45.567510163665773
            ],
            [
              -73.428056276426929,
              45.567389106326537
            ],
            [
              -73.427925702687375,
              45.567453340865562
            ],
            [
              -73.42788335444753,
              45.567403929688211
            ],
            [
              -73.427802186987805,
              45.567438517516919
            ],
            [
              -73.426831706491157,
              45.566675109773804
            ],
            [
              -73.426683487651658,
              45.566759109839289
            ],
            [
              -73.426842293551104,
              45.566892521449816
            ],
            [
              -73.426281179373049,
              45.567240872494615
            ],
            [
              -73.427121086130143,
              45.567912862733117
            ],
            [
              -73.427445755969032,
              45.567712748833515
            ],
            [
              -73.427463401068962,
              45.567737454291795
            ],
            [
              -73.427339885369406,
              45.567831334934155
            ],
            [
              -73.42749516224886,
              45.567952391320333
            ],
            [
              -73.428208024286405,
              45.567510163665773
            ]
          ]
        ]
      },
      "properties": {
        "FID": 6,
        "UNIQID": "ESTRMTL02"
      }
    },
    {
      "type": "Feature",
      "id": 7,
      "geometry": {
        "type": "Polygon",
        "coordinates": [
          [
            [
              -73.569748193448675,
              45.599278692456501
            ],
            [
              -73.569956405627963,
              45.598984861926148
            ],
            [
              -73.569501162049534,
              45.598834242318254
            ],
            [
              -73.569298243400226,
              45.599123135308574
            ],
            [
              -73.569748193448675,
              45.599278692456501
            ]
          ]
        ]
      },
      "properties": {
        "FID": 7,
        "UNIQID": "CLGXMTL04"
      }
    },
    {
      "type": "Feature",
      "id": 8,
      "geometry": {
        "type": "Polygon",
        "coordinates": [
          [
            [
              -73.56483138635059,
              45.542080543340475
            ],
            [
              -73.56509253382967,
              45.541665300661442
            ],
            [
              -73.56489137969038,
              45.541643055431372
            ],
            [
              -73.56483138635059,
              45.541717206164044
            ],
            [
              -73.564482013371787,
              45.541615866804896
            ],
            [
              -73.56425968511256,
              45.541984147991904
            ],
            [
              -73.564524361611646,
              45.542075599993282
            ],
            [
              -73.564573767891474,
              45.542006393087007
            ],
            [
              -73.56483138635059,
              45.542080543340475
            ]
          ]
        ]
      },
      "properties": {
        "FID": 8,
        "UNIQID": "SMRTMTL01"
      }
    },
    {
      "type": "Feature",
      "id": 9,
      "geometry": {
        "type": "Polygon",
        "coordinates": [
          [
            [
              -73.608136872876315,
              45.599483014880406
            ],
            [
              -73.608263917595878,
              45.599332396609739
            ],
            [
              -73.607498120258526,
              45.598994121315016
            ],
            [
              -73.607328727299119,
              45.59918177793476
            ],
            [
              -73.60815451797626,
              45.59955215100041
            ],
            [
              -73.608200395236096,
              45.599512644656556
            ],
            [
              -73.608136872876315,
              45.599483014880406
            ]
          ]
        ]
      },
      "properties": {
        "FID": 9,
        "UNIQID": "LSWBMTL03"
      }
    },
    {
      "type": "Feature",
      "id": 10,
      "geometry": {
        "type": "Polygon",
        "coordinates": [
          [
            [
              -73.91504383077627,
              45.424485971612164
            ],
            [
              -73.914260388338974,
              45.423411013651332
            ],
            [
              -73.91308522468303,
              45.423814744502195
            ],
            [
              -73.913879254180287,
              45.424902078876002
            ],
            [
              -73.91504383077627,
              45.424485971612164
            ]
          ]
        ]
      },
      "properties": {
        "FID": 10,
        "UNIQID": "CMPSMTL01"
      }
    },
    {
      "type": "Feature",
      "id": 11,
      "geometry": {
        "type": "Polygon",
        "coordinates": [
          [
            [
              -73.869967658471595,
              45.445995687812648
            ],
            [
              -73.869748859232331,
              45.445777808703944
            ],
            [
              -73.869819439632096,
              45.44574067013555
            ],
            [
              -73.869515943913129,
              45.445438608871235
            ],
            [
              -73.869621814512783,
              45.445371759028568
            ],
            [
              -73.869494769793221,
              45.445247962814456
            ],
            [
              -73.869177157994301,
              45.445366807185216
            ],
            [
              -73.868845430115456,
              45.44506969578886
            ],
            [
              -73.868210206517645,
              45.445394042318256
            ],
            [
              -73.868637217936168,
              45.445824850855466
            ],
            [
              -73.868778378735698,
              45.445777808703944
            ],
            [
              -73.869321847813822,
              45.446322504897836
            ],
            [
              -73.869967658471595,
              45.445995687812648
            ]
          ]
        ]
      },
      "properties": {
        "FID": 11,
        "UNIQID": "ESTRMTL02"
      }
    },
    {
      "type": "Feature",
      "id": 12,
      "geometry": {
        "type": "Polygon",
        "coordinates": [
          [
            [
              -73.832991242761523,
              45.459561363412199
            ],
            [
              -73.83285493893915,
              45.459407161259676
            ],
            [
              -73.832679063039308,
              45.45949351451705
            ],
            [
              -73.832498790241985,
              45.459314639765722
            ],
            [
              -73.832441630574536,
              45.459326975973696
            ],
            [
              -73.832195404314774,
              45.459080251301593
            ],
            [
              -73.832278945367179,
              45.459049410641676
            ],
            [
              -73.832081084979862,
              45.458870534481477
            ],
            [
              -73.831848049412585,
              45.458969224846932
            ],
            [
              -73.831711745590198,
              45.458839693706857
            ],
            [
              -73.831302834123079,
              45.45904632657475
            ],
            [
              -73.832041512902407,
              45.459786497797566
            ],
            [
              -73.83221299190474,
              45.459949950966163
            ],
            [
              -73.832991242761523,
              45.459561363412199
            ]
          ]
        ]
      },
      "properties": {
        "FID": 12,
        "UNIQID": "EVNMPCL01"
      }
    },
    {
      "type": "Feature",
      "id": 13,
      "geometry": {
        "type": "Polygon",
        "coordinates": [
          [
            [
              -73.823093826498138,
              45.472090420847344
            ],
            [
              -73.822786043673432,
              45.471763584433276
            ],
            [
              -73.822385926001303,
              45.471967086574132
            ],
            [
              -73.82196822073918,
              45.471566248322226
            ],
            [
              -73.82071070805533,
              45.472170587980202
            ],
            [
              -73.821598881349502,
              45.473046252313459
            ],
            [
              -73.822161684229002,
              45.472778004473831
            ],
            [
              -73.822034174201619,
              45.472642338413607
            ],
            [
              -73.823093826498138,
              45.472090420847344
            ]
          ]
        ]
      },
      "properties": {
        "FID": 13,
        "UNIQID": "VNTGMTL03"
      }
    },
    {
      "type": "Feature",
      "id": 14,
      "geometry": {
        "type": "Polygon",
        "coordinates": [
          [
            [
              -73.801616081454796,
              45.475270810197031
            ],
            [
              -73.80105327857531,
              45.47472508479089
            ],
            [
              -73.800380553258435,
              45.474999489751738
            ],
            [
              -73.800574016748243,
              45.475175231552825
            ],
            [
              -73.800681740736906,
              45.475326307399911
            ],
            [
              -73.800132128549905,
              45.475585293624064
            ],
            [
              -73.800228860294808,
              45.47569628735576
            ],
            [
              -73.800782869379304,
              45.475468133336769
            ],
            [
              -73.800870807329233,
              45.475517464013734
            ],
            [
              -73.801108239794019,
              45.475492798680648
            ],
            [
              -73.801616081454796,
              45.475270810197031
            ]
          ]
        ]
      },
      "properties": {
        "FID": 14,
        "UNIQID": "VNTGMTL02"
      }
    },
    {
      "type": "Feature",
      "id": 15,
      "geometry": {
        "type": "Polygon",
        "coordinates": [
          [
            [
              -73.800325592039741,
              45.474332745039995
            ],
            [
              -73.799551738080453,
              45.473494100028027
            ],
            [
              -73.798707533761217,
              45.473904174332098
            ],
            [
              -73.79947699082301,
              45.474702731518938
            ],
            [
              -73.799890299187638,
              45.474542404342962
            ],
            [
              -73.799960649547572,
              45.474573236527611
            ],
            [
              -73.800052984394981,
              45.474520821803672
            ],
            [
              -73.800013412317512,
              45.474465323807543
            ],
            [
              -73.800325592039741,
              45.474332745039995
            ]
          ]
        ]
      },
      "properties": {
        "FID": 15,
        "UNIQID": "HIVDMTL02"
      }
    },
    {
      "type": "Feature",
      "id": 16,
      "geometry": {
        "type": "Polygon",
        "coordinates": [
          [
            [
              -73.769922694691729,
              45.481252631621246
            ],
            [
              -73.77078888349844,
              45.480558985614749
            ],
            [
              -73.770371178236303,
              45.480266110292419
            ],
            [
              -73.769817169151821,
              45.480703881263935
            ],
            [
              -73.769465417352137,
              45.480494244885101
            ],
            [
              -73.768660785110384,
              45.481157063123142
            ],
            [
              -73.769069696577517,
              45.481354365650766
            ],
            [
              -73.769430242172177,
              45.481079991635625
            ],
            [
              -73.76951378322461,
              45.481123151681629
            ],
            [
              -73.769597324277029,
              45.481058411600237
            ],
            [
              -73.769922694691729,
              45.481252631621246
            ]
          ]
        ]
      },
      "properties": {
        "FID": 16,
        "UNIQID": "CLGXMTL08"
      }
    },
    {
      "type": "Feature",
      "id": 17,
      "geometry": {
        "type": "Polygon",
        "coordinates": [
          [
            [
              -73.75678476497373,
              45.486973344061823
            ],
            [
              -73.756582507688933,
              45.486282851065965
            ],
            [
              -73.755439314339966,
              45.486443144837217
            ],
            [
              -73.755465695724951,
              45.48649246590584
            ],
            [
              -73.755575618162354,
              45.486631181179817
            ],
            [
              -73.755663556112268,
              45.486628098621892
            ],
            [
              -73.755725112677212,
              45.486930188497553
            ],
            [
              -73.755944957552018,
              45.486917858330251
            ],
            [
              -73.755997720321943,
              45.48706582015965
            ],
            [
              -73.75678476497373,
              45.486973344061823
            ]
          ]
        ]
      },
      "properties": {
        "FID": 17,
        "UNIQID": "VNTGMTL01"
      }
    }
  ]
}