{
"type": "FeatureCollection",
"name": "DCbati_poly-2026-08-07",
"crs": { "type": "name", "properties": { "name": "urn:ogc:def:crs:EPSG::3857" } },
"features": [
{ "type": "Feature", "properties": { "dcbat_id": 1, "dcbat_dcid": "AWSDVAR01", "dcbat_areasqm": 28170, "dcbat_areapi2": 303222, "dcbat_nbetage": 1 }, "geometry": { "type": "MultiPolygon", "coordinates": [ [ [ [ -8168914.09802156034857, 5720349.648158279247582 ], [ -8168683.400953445583582, 5720097.163033730350435 ], [ -8168621.881735281087458, 5720153.555650381371379 ], [ -8168848.733852260746062, 5720400.914173415862024 ], [ -8168914.09802156034857, 5720349.648158279247582 ] ] ] ] } },
{ "type": "Feature", "properties": { "dcbat_id": 2, "dcbat_dcid": "BNFDMTL01", "dcbat_areasqm": 2648, "dcbat_areapi2": 28506, "dcbat_nbetage": 1 }, "geometry": { "type": "MultiPolygon", "coordinates": [ [ [ [ -8190019.48990133870393, 5702005.361619983799756 ], [ -8189990.02624823525548, 5702052.503464949317276 ], [ -8189951.134226138703525, 5702028.932542466558516 ], [ -8189981.776425366289914, 5701977.862210420891643 ], [ -8190019.48990133870393, 5702005.361619983799756 ] ] ] ] } },
{ "type": "Feature", "properties": { "dcbat_id": 3, "dcbat_dcid": "CLGXDMD01", "dcbat_areasqm": 13170, "dcbat_areapi2": 141763, "dcbat_nbetage": 1 }, "geometry": { "type": "MultiPolygon", "coordinates": [ [ [ [ -8075730.255303944461048, 5761146.020668269135058 ], [ -8075696.018539039418101, 5761119.621235088445246 ], [ -8075675.806473010219634, 5761144.989440410397947 ], [ -8075649.407039830461144, 5761125.396111096255481 ], [ -8075691.068645318038762, 5761071.359771305695176 ], [ -8075698.905977043323219, 5761070.122297875583172 ], [ -8075720.149270930327475, 5761086.003206898458302 ], [ -8075738.71137238573283, 5761062.491211721673608 ], [ -8075730.667795088142157, 5761056.51009014248848 ], [ -8075795.016413463279605, 5760977.518036173656583 ], [ -8075836.6780189499259, 5761009.69234536215663 ], [ -8075828.428196081891656, 5761020.829606235027313 ], [ -8075851.115208971314132, 5761038.979216546751559 ], [ -8075831.728125229477882, 5761063.728685153648257 ], [ -8075827.603213794529438, 5761061.047492721118033 ], [ -8075810.691076913848519, 5761082.703277751803398 ], [ -8075804.606832548044622, 5761078.062752388417721 ], [ -8075786.869713380001485, 5761100.543519705533981 ], [ -8075776.712118971161544, 5761093.376486089080572 ], [ -8075772.27783917915076, 5761098.738870954141021 ], [ -8075768.977910031564534, 5761096.573292450979352 ], [ -8075730.255303944461048, 5761146.020668269135058 ] ] ] ] } },
{ "type": "Feature", "properties": { "dcbat_id": 4, "dcbat_dcid": "CLGXLGL10", "dcbat_areasqm": 29999, "dcbat_areapi2": 322909, "dcbat_nbetage": 1 }, "geometry": { "type": "MultiPolygon", "coordinates": [ [ [ [ -8179268.207563805393875, 5711070.371015219949186 ], [ -8179257.207799980416894, 5711058.978402687236667 ], [ -8179246.208036155439913, 5711067.228225556202233 ], [ -8179176.673814832232893, 5710989.837030072696507 ], [ -8179186.495032533071935, 5710980.408661079593003 ], [ -8179173.53102516848594, 5710968.230351130478084 ], [ -8179185.316486408933997, 5710955.659192473627627 ], [ -8179208.494560183957219, 5710978.837266247719526 ], [ -8179248.172279695048928, 5710945.837974772788584 ], [ -8179237.958213286474347, 5710931.695421283133328 ], [ -8179342.848818331956863, 5710833.483244273811579 ], [ -8179374.276714975014329, 5710866.482535748742521 ], [ -8179379.776596887968481, 5710862.946897376328707 ], [ -8179383.705083968117833, 5710869.232476705685258 ], [ -8179390.3835120042786, 5710864.125443500466645 ], [ -8179443.02523888181895, 5710926.588388078846037 ], [ -8179337.348936419934034, 5711019.693531882949173 ], [ -8179331.063357090577483, 5711016.943590926937759 ], [ -8179268.207563805393875, 5711070.371015219949186 ] ] ] ] } },
{ "type": "Feature", "properties": { "dcbat_id": 5, "dcbat_dcid": "CLGXMTL02", "dcbat_areasqm": 85, "dcbat_areapi2": 918, "dcbat_nbetage": 1 }, "geometry": { "type": "MultiPolygon", "coordinates": [ [ [ [ -8186601.103544316254556, 5695321.830152800306678 ], [ -8186597.130429622717202, 5695312.691989005543292 ], [ -8186589.184200235642493, 5695315.870480760000646 ], [ -8186590.77344611287117, 5695323.816710147075355 ], [ -8186601.103544316254556, 5695321.830152800306678 ] ] ] ] } },
{ "type": "Feature", "properties": { "dcbat_id": 6, "dcbat_dcid": "CLGXMTL04", "dcbat_areasqm": 2893, "dcbat_areapi2": 31139, "dcbat_nbetage": 1 }, "geometry": { "type": "MultiPolygon", "coordinates": [ [ [ [ -8189746.906684065237641, 5716364.252886554226279 ], [ -8189696.818473789840937, 5716339.503417947329581 ], [ -8189719.407274502329528, 5716293.540119105949998 ], [ -8189770.084757840260863, 5716317.503890297375619 ], [ -8189746.906684065237641, 5716364.252886554226279 ] ] ] ] } },
{ "type": "Feature", "properties": { "dcbat_id": 7, "dcbat_dcid": "CLGXMTL05", "dcbat_areasqm": 1512, "dcbat_areapi2": 16276, "dcbat_nbetage": 1 }, "geometry": { "type": "MultiPolygon", "coordinates": [ [ [ [ -8211005.788692730478942, 5698025.972381941974163 ], [ -8210999.579106769524515, 5698000.745938976295292 ], [ -8210941.752337510697544, 5698015.105606510303915 ], [ -8210954.559608554467559, 5698040.332049475982785 ], [ -8211005.788692730478942, 5698025.972381941974163 ] ] ] ] } },
{ "type": "Feature", "properties": { "dcbat_id": 8, "dcbat_dcid": "CLGXMTL06", "dcbat_areasqm": 1253, "dcbat_areapi2": 13490, "dcbat_nbetage": 1 }, "geometry": { "type": "MultiPolygon", "coordinates": [ [ [ [ -8210998.802908524870872, 5697999.581641608849168 ], [ -8210992.981421686708927, 5697980.952883726917207 ], [ -8210937.095148039981723, 5697990.655361790210009 ], [ -8210942.916634878143668, 5698014.329408265650272 ], [ -8210998.802908524870872, 5697999.581641608849168 ] ] ] ] } },
{ "type": "Feature", "properties": { "dcbat_id": 9, "dcbat_dcid": "CLGXMTL08", "dcbat_areasqm": 17320, "dcbat_areapi2": 186429, "dcbat_nbetage": 1 }, "geometry": { "type": "MultiPolygon", "coordinates": [ [ [ [ -8212030.230232238769531, 5697605.741968235000968 ], [ -8211994.010163354687393, 5697574.90596364531666 ], [ -8211984.710415938869119, 5697585.184631841257215 ], [ -8211975.410668523050845, 5697578.332186376675963 ], [ -8211935.27491651661694, 5697621.894161115400493 ], [ -8211889.755100216716528, 5697590.568696134723723 ], [ -8211979.32635164540261, 5697485.334712216630578 ], [ -8212018.483182870782912, 5697518.618018757551908 ], [ -8212080.15519205108285, 5697449.11464333254844 ], [ -8212126.653929132036865, 5697495.613380412571132 ], [ -8212030.230232238769531, 5697605.741968235000968 ] ] ] ] } },
{ "type": "Feature", "properties": { "dcbat_id": 10, "dcbat_dcid": "CLGXMTL11", "dcbat_areasqm": 1684, "dcbat_areapi2": 18127, "dcbat_nbetage": 1 }, "geometry": { "type": "MultiPolygon", "coordinates": [ [ [ [ -8189229.913104268722236, 5700529.907808213494718 ], [ -8189248.966266608797014, 5700501.033428172580898 ], [ -8189209.484971449710429, 5700473.926867317408323 ], [ -8189190.235384755767882, 5700504.96191525273025 ], [ -8189229.913104268722236, 5700529.907808213494718 ] ] ] ] } },
{ "type": "Feature", "properties": { "dcbat_id": 11, "dcbat_dcid": "CLGXMTL12", "dcbat_areasqm": 102, "dcbat_areapi2": 1094, "dcbat_nbetage": 1 }, "geometry": { "type": "MultiPolygon", "coordinates": [ [ [ [ -8186595.938495215028524, 5695336.133365698158741 ], [ -8186592.760003459639847, 5695326.200578963384032 ], [ -8186582.032593786716461, 5695330.571005126461387 ], [ -8186587.992265827022493, 5695338.914545983076096 ], [ -8186595.938495215028524, 5695336.133365698158741 ] ] ] ] } },
{ "type": "Feature", "properties": { "dcbat_id": 12, "dcbat_dcid": "CMPSMTL01", "dcbat_areasqm": 6215, "dcbat_areapi2": 66893, "dcbat_nbetage": 1 }, "geometry": { "type": "MultiPolygon", "coordinates": [ [ [ [ -8197745.864083747379482, 5690917.409027202054858 ], [ -8197682.691560117527843, 5690836.357487450353801 ], [ -8197635.411495262756944, 5690873.307454101741314 ], [ -8197697.392084484919906, 5690954.756305322051048 ], [ -8197745.864083747379482, 5690917.409027202054858 ] ] ] ] } },
{ "type": "Feature", "properties": { "dcbat_id": 13, "dcbat_dcid": "CMPSMTL02", "dcbat_areasqm": 28040, "dcbat_areapi2": 301821, "dcbat_nbetage": 1 }, "geometry": { "type": "MultiPolygon", "coordinates": [ [ [ [ -8228185.041204512119293, 5688597.509777514263988 ], [ -8228055.401130856946111, 5688663.508360465988517 ], [ -8227967.010171546600759, 5688491.047777634114027 ], [ -8228097.82879132591188, 5688427.013438222929835 ], [ -8228185.041204512119293, 5688597.509777514263988 ] ] ] ] } },
{ "type": "Feature", "properties": { "dcbat_id": 14, "dcbat_dcid": "EQNXGAT01", "dcbat_areasqm": 8872, "dcbat_areapi2": 95494, "dcbat_nbetage": 1 }, "geometry": { "type": "MultiPolygon", "coordinates": [ [ [ [ -8393355.170554663985968, 5712463.772383370436728 ], [ -8393346.712679117918015, 5712369.149900713004172 ], [ -8393294.908191407099366, 5712373.907455706968904 ], [ -8393301.780215287581086, 5712386.065651803277433 ], [ -8393274.820736987516284, 5712389.237355132587254 ], [ -8393272.706268101930618, 5712439.455991178750992 ], [ -8393277.992440316826105, 5712471.701641693711281 ], [ -8393276.406588653102517, 5712489.674627225846052 ], [ -8393291.207870855927467, 5712494.960799441672862 ], [ -8393292.265105299651623, 5712516.634105524979532 ], [ -8393316.052880268543959, 5712512.405167752876878 ], [ -8393314.995645824819803, 5712490.20324444770813 ], [ -8393339.312038017436862, 5712484.91707223188132 ], [ -8393335.611717466264963, 5712464.829617813229561 ], [ -8393355.170554663985968, 5712463.772383370436728 ] ] ] ] } },
{ "type": "Feature", "properties": { "dcbat_id": 15, "dcbat_dcid": "EQNXMTL01", "dcbat_areasqm": 67629, "dcbat_areapi2": 727956, "dcbat_nbetage": 1 }, "geometry": { "type": "MultiPolygon", "coordinates": [ [ [ [ -8209415.363633256405592, 5699014.788553467020392 ], [ -8209046.871545109897852, 5698992.789025816135108 ], [ -8209059.442703767679632, 5698797.150369210168719 ], [ -8209303.794600171968341, 5698809.721527867019176 ], [ -8209300.651810507290065, 5698864.327498286031187 ], [ -8209427.149094497784972, 5698871.005926322191954 ], [ -8209420.077817752957344, 5698949.182819223031402 ], [ -8209450.327168272808194, 5698950.754214055836201 ], [ -8209445.612983776256442, 5698991.61047969199717 ], [ -8209431.470430286601186, 5698990.039084860123694 ], [ -8209431.470430286601186, 5699001.038848685100675 ], [ -8209417.720725504681468, 5699002.217394809238613 ], [ -8209415.363633256405592, 5699014.788553467020392 ] ] ] ] } },
{ "type": "Feature", "properties": { "dcbat_id": 16, "dcbat_dcid": "EQNXVDO01", "dcbat_areasqm": 34808, "dcbat_areapi2": 374671, "dcbat_nbetage": 1 }, "geometry": { "type": "MultiPolygon", "coordinates": [ [ [ [ -8243369.143508195877075, 5686608.409991947934031 ], [ -8243248.09016446210444, 5686692.988747394643724 ], [ -8243113.292772967368364, 5686497.928992644883692 ], [ -8243231.703030593693256, 5686415.464706083759665 ], [ -8243232.760265037417412, 5686413.878854419104755 ], [ -8243369.143508195877075, 5686608.409991947934031 ] ] ] ] } },
{ "type": "Feature", "properties": { "dcbat_id": 17, "dcbat_dcid": "ESTRMTL01", "dcbat_areasqm": 4761, "dcbat_areapi2": 51246, "dcbat_nbetage": 1 }, "geometry": { "type": "MultiPolygon", "coordinates": [ [ [ [ -8188951.18694590497762, 5700631.066350536420941 ], [ -8188922.11614151019603, 5700678.601044209674001 ], [ -8188851.403374061919749, 5700636.959081157110631 ], [ -8188882.831270704977214, 5700585.495900402776897 ], [ -8188951.18694590497762, 5700631.066350536420941 ] ] ] ] } },
{ "type": "Feature", "properties": { "dcbat_id": 18, "dcbat_dcid": "ESTRMTL01", "dcbat_areasqm": 25348, "dcbat_areapi2": 272842, "dcbat_nbetage": 1 }, "geometry": { "type": "MultiPolygon", "coordinates": [ [ [ [ -8196785.363606555387378, 5693863.076261064037681 ], [ -8196751.592131659388542, 5693811.02845857758075 ], [ -8196718.615279702469707, 5693837.251015555113554 ], [ -8196702.325509457848966, 5693815.994851944036782 ], [ -8196717.820656763389707, 5693807.849966822192073 ], [ -8196700.537607845850289, 5693775.667737802490592 ], [ -8196677.096231154166162, 5693785.203213067725301 ], [ -8196663.984952664934099, 5693766.132262538187206 ], [ -8196631.008100707083941, 5693789.970950699411333 ], [ -8196634.583903932012618, 5693793.14944245480001 ], [ -8196583.728035853244364, 5693829.304786167107522 ], [ -8196569.822134425863624, 5693811.028458575718105 ], [ -8196526.117872795090079, 5693844.005310533568263 ], [ -8196556.31354446709156, 5693882.14721159171313 ], [ -8196578.56298675108701, 5693867.44668722525239 ], [ -8196592.866199648939073, 5693882.54452306125313 ], [ -8196600.415117566473782, 5693877.379473960027099 ], [ -8196667.958067358471453, 5693971.542292199097574 ], [ -8196761.326262659393251, 5693903.204719468019903 ], [ -8196750.598852986469865, 5693888.504195101559162 ], [ -8196785.363606555387378, 5693863.076261064037681 ] ] ] ] } },
{ "type": "Feature", "properties": { "dcbat_id": 19, "dcbat_dcid": "ESTRMTL02", "dcbat_areasqm": 18944, "dcbat_areapi2": 203916, "dcbat_nbetage": 1 }, "geometry": { "type": "MultiPolygon", "coordinates": [ [ [ [ -8173990.727126127108932, 5711311.236379324458539 ], [ -8173911.371687102131546, 5711381.55629806406796 ], [ -8173894.086343947798014, 5711362.306711370125413 ], [ -8173907.836048729717731, 5711347.378460464067757 ], [ -8173905.871805189177394, 5711343.449973383918405 ], [ -8173869.729724048636854, 5711375.270718735642731 ], [ -8173776.231731534004211, 5711268.415870147757232 ], [ -8173838.694676113314927, 5711213.024202313274145 ], [ -8173821.016484251245856, 5711191.810372078791261 ], [ -8173837.516129989176989, 5711178.453516004607081 ], [ -8173945.549524702131748, 5711299.843766790814698 ], [ -8173954.585044986568391, 5711294.343884877860546 ], [ -8173959.299229483120143, 5711302.200859039090574 ], [ -8173973.834631681442261, 5711291.98679262958467 ], [ -8173990.727126127108932, 5711311.236379324458539 ] ] ] ] } },
{ "type": "Feature", "properties": { "dcbat_id": 20, "dcbat_dcid": "ESTRMTL04", "dcbat_areasqm": 19483, "dcbat_areapi2": 209716, "dcbat_nbetage": 1 }, "geometry": { "type": "MultiPolygon", "coordinates": [ [ [ [ -8223191.425087608397007, 5691998.158891119994223 ], [ -8223095.293343071825802, 5692061.649685059674084 ], [ -8223029.837384431622922, 5691977.254731047898531 ], [ -8223018.184068867005408, 5691986.148050821386278 ], [ -8222968.810810813680291, 5691915.614825030788779 ], [ -8223042.258767485618591, 5691862.868238788098097 ], [ -8223079.823974883183837, 5691919.294819420203567 ], [ -8223116.010586375370622, 5691894.148191095329821 ], [ -8223132.570561126805842, 5691918.681487021967769 ], [ -8223111.41059338953346, 5691931.254801184870303 ], [ -8223119.38391456566751, 5691944.748113944195211 ], [ -8223125.823904746212065, 5691941.068119555711746 ], [ -8223151.183771624229848, 5691975.784051528200507 ], [ -8223142.834950881078839, 5691982.296131707727909 ], [ -8223151.6847008690238, 5691993.817504333332181 ], [ -8223176.898139514029026, 5691976.284980772063136 ], [ -8223191.425087608397007, 5691998.158891119994223 ] ] ] ] } },
{ "type": "Feature", "properties": { "dcbat_id": 21, "dcbat_dcid": "ESTRMTL05", "dcbat_areasqm": 42, "dcbat_areapi2": 453, "dcbat_nbetage": 1 }, "geometry": { "type": "MultiPolygon", "coordinates": [ [ [ [ -8189273.644966119900346, 5700979.655460583977401 ], [ -8189277.169504660181701, 5700975.16968426015228 ], [ -8189269.31939609348774, 5700971.80535201728344 ], [ -8189267.076507931575179, 5700976.291128341108561 ], [ -8189273.644966119900346, 5700979.655460583977401 ] ] ] ] } },
{ "type": "Feature", "properties": { "dcbat_id": 22, "dcbat_dcid": "EVNMPCL01", "dcbat_areasqm": 14600, "dcbat_areapi2": 157150, "dcbat_nbetage": 1 }, "geometry": { "type": "MultiPolygon", "coordinates": [ [ [ [ -8219050.988888440653682, 5694162.510487430728972 ], [ -8218964.354399354197085, 5694224.18249661102891 ], [ -8218945.265444131568074, 5694198.241095923818648 ], [ -8218863.036098557524383, 5694080.770602246746421 ], [ -8218908.555914857424796, 5694047.97675609588623 ], [ -8218923.729186957702041, 5694068.534092488698661 ], [ -8218949.67058764398098, 5694052.871359998360276 ], [ -8218971.696305208839476, 5694081.260062637738883 ], [ -8218962.396557793021202, 5694086.154666540212929 ], [ -8218989.806339650414884, 5694125.311497766524553 ], [ -8218996.169324724934995, 5694123.353656204417348 ], [ -8219016.237200727686286, 5694151.742358843795955 ], [ -8219035.815616340376437, 5694138.037467914633453 ], [ -8219050.988888440653682, 5694162.510487430728972 ] ] ] ] } },
{ "type": "Feature", "properties": { "dcbat_id": 23, "dcbat_dcid": "EVNMSJM01", "dcbat_areasqm": 5204, "dcbat_areapi2": 56016, "dcbat_nbetage": 1 }, "geometry": { "type": "MultiPolygon", "coordinates": [ [ [ [ -8239843.774837625212967, 5745798.487174383364618 ], [ -8239763.281590046361089, 5745799.074716336093843 ], [ -8239762.400277116335928, 5745733.270017585717142 ], [ -8239842.599753718823195, 5745734.738872468471527 ], [ -8239843.774837625212967, 5745798.487174383364618 ] ] ] ] } },
{ "type": "Feature", "properties": { "dcbat_id": 24, "dcbat_dcid": "HIVDMTL02", "dcbat_areasqm": 17789, "dcbat_areapi2": 191474, "dcbat_nbetage": 1 }, "geometry": { "type": "MultiPolygon", "coordinates": [ [ [ [ -8215414.665283659473062, 5696507.148122162558138 ], [ -8215379.913595946505666, 5696528.194918946363032 ], [ -8215384.318739458918571, 5696537.005205972120166 ], [ -8215374.040071262046695, 5696545.326032606884837 ], [ -8215366.208705017343163, 5696540.431428704410791 ], [ -8215320.199428327381611, 5696565.883369000628591 ], [ -8215234.543860021047294, 5696439.11312790773809 ], [ -8215328.520254963077605, 5696374.014895995147526 ], [ -8215414.665283659473062, 5696507.148122162558138 ] ] ] ] } },
{ "type": "Feature", "properties": { "dcbat_id": 25, "dcbat_dcid": "KEELSHB01", "dcbat_areasqm": 12435, "dcbat_areapi2": 133854, "dcbat_nbetage": 1 }, "geometry": { "type": "MultiPolygon", "coordinates": [ [ [ [ -8011834.552202670834959, 5684486.810361082665622 ], [ -8011842.802025539800525, 5684496.710148525424302 ], [ -8011820.527503794059157, 5684516.097232267260551 ], [ -8011713.692297643050551, 5684408.849534972570837 ], [ -8011733.904363671317697, 5684386.987504370510578 ], [ -8011720.704647080972791, 5684372.137823206372559 ], [ -8011741.329204253852367, 5684351.925757178105414 ], [ -8011762.778743712231517, 5684375.025261210277677 ], [ -8011781.340845167636871, 5684359.350597759708762 ], [ -8011813.927645498886704, 5684389.462451230734587 ], [ -8011816.402592360042036, 5684388.224977800622582 ], [ -8011824.239924085326493, 5684395.649818382225931 ], [ -8011820.939994937740266, 5684399.774729817174375 ], [ -8011872.088896724395454, 5684451.748613890260458 ], [ -8011834.552202670834959, 5684486.810361082665622 ] ] ] ] } },
{ "type": "Feature", "properties": { "dcbat_id": 26, "dcbat_dcid": "LSWBMTL01", "dcbat_areasqm": 2948, "dcbat_areapi2": 31735, "dcbat_nbetage": 1 }, "geometry": { "type": "MultiPolygon", "coordinates": [ [ [ [ -8186259.812992135062814, 5695507.771920462138951 ], [ -8186242.529943217523396, 5695457.512019587680697 ], [ -8186216.903353443369269, 5695466.252871913835406 ], [ -8186206.374599505215883, 5695461.882445750758052 ], [ -8186201.408206137828529, 5695472.609855423681438 ], [ -8186192.071386608295143, 5695475.788347179070115 ], [ -8186195.845845567062497, 5695485.323822443373501 ], [ -8186191.078107934445143, 5695496.448543585836887 ], [ -8186201.606861872598529, 5695500.024346809834242 ], [ -8186210.546369933523238, 5695525.650936583988369 ], [ -8186259.812992135062814, 5695507.771920462138951 ] ] ] ] } },
{ "type": "Feature", "properties": { "dcbat_id": 27, "dcbat_dcid": "LSWBMTL02", "dcbat_areasqm": 5107, "dcbat_areapi2": 54968, "dcbat_nbetage": 1 }, "geometry": { "type": "MultiPolygon", "coordinates": [ [ [ [ -8195172.336179425008595, 5691592.42790743894875 ], [ -8195136.918825580738485, 5691651.104419030249119 ], [ -8195071.898907330818474, 5691613.572596300393343 ], [ -8195108.373495617881417, 5691555.42470193002373 ], [ -8195172.336179425008595, 5691592.42790743894875 ] ] ] ] } },
{ "type": "Feature", "properties": { "dcbat_id": 28, "dcbat_dcid": "LSWBMTL03", "dcbat_areasqm": 3679, "dcbat_areapi2": 39599, "dcbat_nbetage": 1 }, "geometry": { "type": "MultiPolygon", "coordinates": [ [ [ [ -8194020.314930176362395, 5716396.761117135174572 ], [ -8194027.386206921190023, 5716401.475301631726325 ], [ -8194022.279173716902733, 5716407.760880960151553 ], [ -8193930.352576034143567, 5716348.833574753254652 ], [ -8193949.209314020350575, 5716318.977072942070663 ], [ -8194034.457483666017652, 5716372.797345943748951 ], [ -8194020.314930176362395, 5716396.761117135174572 ] ] ] ] } },
{ "type": "Feature", "properties": { "dcbat_id": 30, "dcbat_dcid": "QSCLLVS01", "dcbat_areasqm": 24207, "dcbat_areapi2": 260566, "dcbat_nbetage": 1 }, "geometry": { "type": "MultiPolygon", "coordinates": [ [ [ [ -7939870.003119680099189, 5889503.491853323765099 ], [ -7939734.440744997933507, 5889367.929478641599417 ], [ -7939812.297514241188765, 5889288.698766412213445 ], [ -7939849.393974880687892, 5889324.879265059717 ], [ -7939863.591385742649436, 5889311.139835193753242 ], [ -7939962.973261776380241, 5889419.681331139057875 ], [ -7939870.003119680099189, 5889503.491853323765099 ] ] ] ] } },
{ "type": "Feature", "properties": { "dcbat_id": 31, "dcbat_dcid": "SMRTMTL01", "dcbat_areasqm": 4205, "dcbat_areapi2": 45263, "dcbat_nbetage": 1 }, "geometry": { "type": "MultiPolygon", "coordinates": [ [ [ [ -8189199.570221576839685, 5707268.528536988422275 ], [ -8189170.892265888862312, 5707256.743075747042894 ], [ -8189165.392383976839483, 5707267.742839572951198 ], [ -8189135.928730873391032, 5707253.20743737462908 ], [ -8189160.678199480287731, 5707194.67297987639904 ], [ -8189199.570221576839685, 5707210.779776905663311 ], [ -8189206.248649613000453, 5707198.994315664283931 ], [ -8189228.641025971621275, 5707202.529954036697745 ], [ -8189199.570221576839685, 5707268.528536988422275 ] ] ] ] } },
{ "type": "Feature", "properties": { "dcbat_id": 32, "dcbat_dcid": "UBCNMTL01", "dcbat_areasqm": 578, "dcbat_areapi2": 6222, "dcbat_nbetage": 1 }, "geometry": { "type": "MultiPolygon", "coordinates": [ [ [ [ -8188985.0733731565997, 5700174.538713583722711 ], [ -8188970.013981212861836, 5700164.285510557703674 ], [ -8188987.796880210749805, 5700138.812709290534258 ], [ -8189003.497097344137728, 5700149.546531207859516 ], [ -8188985.0733731565997, 5700174.538713583722711 ] ] ] ] } },
{ "type": "Feature", "properties": { "dcbat_id": 33, "dcbat_dcid": "VNTGMTL01", "dcbat_areasqm": 12255, "dcbat_areapi2": 131916, "dcbat_nbetage": 1 }, "geometry": { "type": "MultiPolygon", "coordinates": [ [ [ [ -8210567.722585953772068, 5698514.058087574318051 ], [ -8210480.109176086261868, 5698528.741899284534156 ], [ -8210474.23565140273422, 5698505.247800548560917 ], [ -8210449.762631886638701, 5698507.2056421097368 ], [ -8210442.91018642205745, 5698459.238523858599365 ], [ -8210433.120978616178036, 5698459.727984248660505 ], [ -8210420.884468858130276, 5698437.702266684733331 ], [ -8210417.947706515900791, 5698429.870900439098477 ], [ -8210545.207407999783754, 5698404.418960142880678 ], [ -8210567.722585953772068, 5698514.058087574318051 ] ] ] ] } },
{ "type": "Feature", "properties": { "dcbat_id": 34, "dcbat_dcid": "VNTGMTL02", "dcbat_areasqm": 14951, "dcbat_areapi2": 160933, "dcbat_nbetage": 1 }, "geometry": { "type": "MultiPolygon", "coordinates": [ [ [ [ -8215558.321908217854798, 5696656.066445916891098 ], [ -8215501.789233135990798, 5696691.307594021782279 ], [ -8215484.877050492912531, 5696702.966729323379695 ], [ -8215470.129283835180104, 5696682.009376704692841 ], [ -8215403.897155071608722, 5696723.611979782581329 ], [ -8215363.013926008716226, 5696658.723429352045059 ], [ -8215417.735902289859951, 5696623.40640919841826 ], [ -8215430.543173334561288, 5696645.528059184551239 ], [ -8215442.319795711897314, 5696640.893173816613853 ], [ -8215420.783538537099957, 5696612.993931569159031 ], [ -8215495.670978256501257, 5696569.431956830434501 ], [ -8215558.321908217854798, 5696656.066445916891098 ] ] ] ] } },
{ "type": "Feature", "properties": { "dcbat_id": 35, "dcbat_dcid": "VNTGMTL03", "dcbat_areasqm": 29877, "dcbat_areapi2": 321589, "dcbat_nbetage": 1 }, "geometry": { "type": "MultiPolygon", "coordinates": [ [ [ [ -8217949.213549830950797, 5696151.188053301535547 ], [ -8217831.25359576381743, 5696238.801463169045746 ], [ -8217845.447947083041072, 5696260.337720343843102 ], [ -8217782.797017121687531, 5696302.92077430151403 ], [ -8217683.926018277183175, 5696163.914023450575769 ], [ -8217823.911689909175038, 5696067.979786947369576 ], [ -8217870.410426989197731, 5696131.609637688845396 ], [ -8217914.951322508975863, 5696099.305251928046346 ], [ -8217949.213549830950797, 5696151.188053301535547 ] ] ] ] } },
{ "type": "Feature", "properties": { "dcbat_id": 36, "dcbat_dcid": "VNTGQBC01", "dcbat_areasqm": 41566, "dcbat_areapi2": 447413, "dcbat_nbetage": 1 }, "geometry": { "type": "MultiPolygon", "coordinates": [ [ [ [ -7937973.456393045373261, 5908868.185082889162004 ], [ -7937908.503035105764866, 5908891.545501096174121 ], [ -7937903.375138427130878, 5908881.859474034979939 ], [ -7937862.351964991539717, 5908892.115267393179238 ], [ -7937849.81710644159466, 5908860.778121019713581 ], [ -7937887.991448388434947, 5908844.25489838514477 ], [ -7937874.317057243548334, 5908851.092093958519399 ], [ -7937821.898557852953672, 5908722.324910674244165 ], [ -7937733.584781707264483, 5908757.08065483532846 ], [ -7937803.096270028501749, 5908881.2897077370435 ], [ -7937807.65440041013062, 5908879.580408844165504 ], [ -7937822.468324150890112, 5908906.92919113393873 ], [ -7937752.956835829652846, 5908924.022180065512657 ], [ -7937751.24753693677485, 5908908.068723729811609 ], [ -7937722.759222051128745, 5908917.75475079100579 ], [ -7937673.189554149284959, 5908791.266632697544992 ], [ -7937709.654597203247249, 5908773.034111171029508 ], [ -7937706.235999416559935, 5908766.766681896522641 ], [ -7937717.631325371563435, 5908762.208551513962448 ], [ -7937704.526700523681939, 5908733.720236628316343 ], [ -7937773.468422547914088, 5908642.557628993876278 ], [ -7937755.235901020467281, 5908630.592536741867661 ], [ -7937784.863748501986265, 5908591.278662199154496 ], [ -7937847.538041250780225, 5908639.708797505125403 ], [ -7937830.445052319206297, 5908657.94131903257221 ], [ -7937853.235704227350652, 5908713.778416208922863 ], [ -7937874.317057243548334, 5908706.371454338543117 ], [ -7937880.014720220118761, 5908714.917948803864419 ], [ -7937903.944904724135995, 5908704.092389147728682 ], [ -7937973.456393045373261, 5908868.185082889162004 ] ] ] ] } },
{ "type": "Feature", "properties": { "dcbat_id": 37, "dcbat_dcid": "VNTGQBC02", "dcbat_areasqm": 25647, "dcbat_areapi2": 276066, "dcbat_nbetage": 1 }, "geometry": { "type": "MultiPolygon", "coordinates": [ [ [ [ -7937520.492186360992491, 5908762.778317811898887 ], [ -7937369.504117466509342, 5908611.790248917415738 ], [ -7937454.969062123447657, 5908527.46483685541898 ], [ -7937606.526897315867245, 5908680.162204643711448 ], [ -7937520.492186360992491, 5908762.778317811898887 ] ] ] ] } },
{ "type": "Feature", "properties": { "dcbat_id": 38, "dcbat_dcid": "GGLEBHS01", "dcbat_areasqm": 1401667, "dcbat_areapi2": 15087405, "dcbat_nbetage": 0 }, "geometry": { "type": "MultiPolygon", "coordinates": [ [ [ [ -8226344.421016386710107, 5666757.282028079032898 ], [ -8226230.468969552777708, 5666029.74203675519675 ], [ -8228259.691957402974367, 5665573.933849419467151 ], [ -8228119.443284376524389, 5666042.890349850989878 ], [ -8227724.993891489692032, 5666507.464079250581563 ], [ -8226344.421016386710107, 5666757.282028079032898 ] ] ] ] } },
{ "type": "Feature", "properties": { "dcbat_id": 39, "dcbat_dcid": "ARGOBCO01", "dcbat_areasqm": 8472, "dcbat_areapi2": 91196, "dcbat_nbetage": 1 }, "geometry": { "type": "MultiPolygon", "coordinates": [ [ [ [ -7590475.816369982436299, 6311565.961805366910994 ], [ -7590405.151376025751233, 6311564.7274823281914 ], [ -7590411.014410458505154, 6311443.455243790522218 ], [ -7590480.136500617489219, 6311444.998147589154541 ], [ -7590475.816369982436299, 6311565.961805366910994 ] ] ] ] } },
{ "type": "Feature", "properties": { "dcbat_id": 40, "dcbat_dcid": "KEELBCO01", "dcbat_areasqm": 3491, "dcbat_areapi2": 37575, "dcbat_nbetage": 1 }, "geometry": { "type": "MultiPolygon", "coordinates": [ [ [ [ -7590916.124506358988583, 6312594.709641847759485 ], [ -7590892.513668001629412, 6312584.908916492015123 ], [ -7590884.49489271081984, 6312596.046104396693408 ], [ -7590868.457342128269374, 6312588.918304137885571 ], [ -7590903.650855906307697, 6312512.739938871003687 ], [ -7590945.972169943153858, 6312531.00492703448981 ], [ -7590916.124506358988583, 6312594.709641847759485 ] ] ] ] } },
{ "type": "Feature", "properties": { "dcbat_id": 41, "dcbat_dcid": "MWCAESC01", "dcbat_areasqm": 13053, "dcbat_areapi2": 140497, "dcbat_nbetage": 1 }, "geometry": { "type": "MultiPolygon", "coordinates": [ [ [ [ -7731370.921209763735533, 6164369.632145783863962 ], [ -7731266.321425021626055, 6164285.952317990362644 ], [ -7731332.299750782549381, 6164207.904786298051476 ], [ -7731429.658011965453625, 6164293.99845527857542 ], [ -7731370.921209763735533, 6164369.632145783863962 ] ] ] ] } },
{ "type": "Feature", "properties": { "dcbat_id": 42, "dcbat_dcid": "MSFTAUG01", "dcbat_areasqm": 70320, "dcbat_areapi2": 756914, "dcbat_nbetage": 0 }, "geometry": { "type": "MultiPolygon", "coordinates": [ [ [ [ -7952090.065314925275743, 5903230.401406881399453 ], [ -7952191.446644752286375, 5902971.315786212682724 ], [ -7951869.601153238676488, 5902832.922224861569703 ], [ -7951859.945788493379951, 5902900.50977807957679 ], [ -7951871.21038069576025, 5902939.131237061694264 ], [ -7951863.164243408478796, 5902980.971150957979262 ], [ -7951856.727333577349782, 5903008.328017736785114 ], [ -7952090.065314925275743, 5903230.401406881399453 ] ] ] ] } },
{ "type": "Feature", "properties": { "dcbat_id": 43, "dcbat_dcid": "MSFTDNA01", "dcbat_areasqm": 30130, "dcbat_areapi2": 324319, "dcbat_nbetage": 1 }, "geometry": { "type": "MultiPolygon", "coordinates": [ [ [ [ -7983458.225160005502403, 5890570.002182896248996 ], [ -7983440.174034151248634, 5890477.159816266968846 ], [ -7983163.789218313992023, 5890501.700534994713962 ], [ -7983171.8353556022048, 5890619.576446261256933 ], [ -7983458.225160005502403, 5890570.002182896248996 ] ] ] ] } },
{ "type": "Feature", "properties": { "dcbat_id": 44, "dcbat_dcid": "MSFTLVS01", "dcbat_areasqm": 416068, "dcbat_areapi2": 4478514, "dcbat_nbetage": 0 }, "geometry": { "type": "MultiPolygon", "coordinates": [ [ [ [ -7932955.368825912475586, 5894820.990542506799102 ], [ -7932672.144793380983174, 5895088.122300462797284 ], [ -7931922.244798155501485, 5894106.493551347404718 ], [ -7932189.376556110568345, 5893948.789260506629944 ], [ -7932955.368825912475586, 5894820.990542506799102 ] ] ] ] } },
{ "type": "Feature", "properties": { "dcbat_id": 45, "dcbat_dcid": "MSFTALO01", "dcbat_areasqm": 254040, "dcbat_areapi2": 2734458, "dcbat_nbetage": 0 }, "geometry": { "type": "MultiPolygon", "coordinates": [ [ [ [ -7942714.931049186736345, 5907968.580024279654026 ], [ -7942439.753153943456709, 5908227.665644948370755 ], [ -7942085.723113277927041, 5908301.690107996575534 ], [ -7942058.366246499121189, 5908259.850194099359214 ], [ -7942117.907662428915501, 5908110.192040545865893 ], [ -7942146.873756665736437, 5907955.706204619258642 ], [ -7942188.713670562021434, 5907818.921870726160705 ], [ -7942233.7720393743366, 5907736.851270389743149 ], [ -7942257.910451238043606, 5907545.353202939033508 ], [ -7942545.962166142649949, 5907812.484960895963013 ], [ -7942568.49135054834187, 5907794.783458862453699 ], [ -7942714.931049186736345, 5907968.580024279654026 ] ] ] ] } },
{ "type": "Feature", "properties": { "dcbat_id": 46, "dcbat_dcid": "CLGXMTL07", "dcbat_areasqm": 2912, "dcbat_areapi2": 31340, "dcbat_nbetage": -1 }, "geometry": { "type": "MultiPolygon", "coordinates": [ [ [ [ -8189543.06617290340364, 5701014.083997525274754 ], [ -8189559.963061207905412, 5700990.75019939057529 ], [ -8189487.547825616784394, 5700940.260687910020351 ], [ -8189470.650937313213944, 5700965.404866933822632 ], [ -8189492.777814853936434, 5700979.686760620214045 ], [ -8189486.944365320727229, 5700989.140971933491528 ], [ -8189509.272396294400096, 5701005.233246508985758 ], [ -8189515.709306124597788, 5700996.784802356734872 ], [ -8189543.06617290340364, 5701014.083997525274754 ] ] ] ] } },
{ "type": "Feature", "properties": { "dcbat_id": 47, "dcbat_dcid": "KEELSHB02", "dcbat_areasqm": 2898, "dcbat_areapi2": 31190, "dcbat_nbetage": 1 }, "geometry": { "type": "MultiPolygon", "coordinates": [ [ [ [ -8011673.505163525231183, 5685872.447547249495983 ], [ -8011671.269774677231908, 5685839.661844146437943 ], [ -8011579.618831910192966, 5685847.113140305504203 ], [ -8011583.344479990191758, 5685877.663454561494291 ], [ -8011673.505163525231183, 5685872.447547249495983 ] ] ] ] } },
{ "type": "Feature", "properties": { "dcbat_id": 48, "dcbat_dcid": "KEELSHB03", "dcbat_areasqm": 16218, "dcbat_areapi2": 174574, "dcbat_nbetage": 1 }, "geometry": { "type": "MultiPolygon", "coordinates": [ [ [ [ -8013247.009324628859758, 5685401.675791961140931 ], [ -8013179.947659189812839, 5685351.00697807315737 ], [ -8013135.239882229827344, 5685409.127088121138513 ], [ -8013063.707439094781876, 5685356.222885385155678 ], [ -8013043.588939462788403, 5685388.263458873145282 ], [ -8013112.885993749834597, 5685438.187143145129085 ], [ -8013089.041846038773656, 5685471.717975864186883 ], [ -8013159.829159557819366, 5685523.131919368170202 ], [ -8013247.009324628859758, 5685401.675791961140931 ] ] ] ] } },
{ "type": "Feature", "properties": { "dcbat_id": 49, "dcbat_dcid": "KEELSHB04", "dcbat_areasqm": 29347, "dcbat_areapi2": 315890, "dcbat_nbetage": 0 }, "geometry": { "type": "MultiPolygon", "coordinates": [ [ [ [ -8011557.247477159835398, 5684398.05569548625499 ], [ -8011479.008867479860783, 5684240.088216894306242 ], [ -8011294.961852328851819, 5684396.565436254255474 ], [ -8011436.536479367874563, 5684463.627101694233716 ], [ -8011557.247477159835398, 5684398.05569548625499 ] ] ] ] } },
{ "type": "Feature", "properties": { "dcbat_id": 50, "dcbat_dcid": "AWSDVAR01", "dcbat_areasqm": 30540, "dcbat_areapi2": 328733, "dcbat_nbetage": 1 }, "geometry": { "type": "MultiPolygon", "coordinates": [ [ [ [ -8169047.163909426890314, 5720236.489053355529904 ], [ -8168983.082762450911105, 5720291.628644939512014 ], [ -8168749.112063026987016, 5720038.284575499594212 ], [ -8168820.644506162963808, 5719978.674206219613552 ], [ -8169047.163909426890314, 5720236.489053355529904 ] ] ] ] } },
{ "type": "Feature", "properties": { "dcbat_id": 29, "dcbat_dcid": "OVHCBHS01", "dcbat_areasqm": 50498, "dcbat_areapi2": 543557, "dcbat_nbetage": 1 }, "geometry": { "type": "MultiPolygon", "coordinates": [ [ [ [ -8226073.431372785940766, 5670128.457620956003666 ], [ -8226090.585270219482481, 5670268.751996392384171 ], [ -8225691.029418003745377, 5670319.639499205164611 ], [ -8225687.534662889316678, 5670295.176213405095041 ], [ -8226073.954728375189006, 5670247.248143267817795 ], [ -8226072.456976182758808, 5670230.772869157604873 ], [ -8225686.536161428317428, 5670280.198691487312317 ], [ -8225672.557140971533954, 5670181.347046827897429 ], [ -8226073.431372785940766, 5670128.457620956003666 ] ] ] ] } }
]
}
