{
  "type": "FeatureCollection",
  "name": "DCbati_poly-2026-08-25",
  "crs": {
    "type": "name",
    "properties": {
      "name": "urn:ogc:def:crs:EPSG::3857"
    }
  },
  "features": [
    {
      "type": "Feature",
      "properties": {
        "dcbat_id": 1,
        "dcbat_dcid": "AWSDVAR01",
        "dcbat_areasqm": 28170,
        "dcbat_areapi2": 303222,
        "dcbat_nbetage": 1
      },
      "geometry": {
        "type": "MultiPolygon",
        "coordinates": [
          [
            [
              [
                -8168914.09802156,
                5720349.648158279
              ],
              [
                -8168683.400953446,
                5720097.16303373
              ],
              [
                -8168621.881735281,
                5720153.555650381
              ],
              [
                -8168848.733852261,
                5720400.914173416
              ],
              [
                -8168914.09802156,
                5720349.648158279
              ]
            ]
          ]
        ]
      }
    },
    {
      "type": "Feature",
      "properties": {
        "dcbat_id": 2,
        "dcbat_dcid": "BNFDMTL01",
        "dcbat_areasqm": 2648,
        "dcbat_areapi2": 28506,
        "dcbat_nbetage": 1
      },
      "geometry": {
        "type": "MultiPolygon",
        "coordinates": [
          [
            [
              [
                -8190019.489901339,
                5702005.361619984
              ],
              [
                -8189990.026248235,
                5702052.503464949
              ],
              [
                -8189951.134226139,
                5702028.932542467
              ],
              [
                -8189981.776425366,
                5701977.862210421
              ],
              [
                -8190019.489901339,
                5702005.361619984
              ]
            ]
          ]
        ]
      }
    },
    {
      "type": "Feature",
      "properties": {
        "dcbat_id": 3,
        "dcbat_dcid": "CLGXDMD01",
        "dcbat_areasqm": 13170,
        "dcbat_areapi2": 141763,
        "dcbat_nbetage": 1
      },
      "geometry": {
        "type": "MultiPolygon",
        "coordinates": [
          [
            [
              [
                -8075730.255303944,
                5761146.020668269
              ],
              [
                -8075696.018539039,
                5761119.621235088
              ],
              [
                -8075675.80647301,
                5761144.98944041
              ],
              [
                -8075649.40703983,
                5761125.396111096
              ],
              [
                -8075691.068645318,
                5761071.359771306
              ],
              [
                -8075698.905977043,
                5761070.122297876
              ],
              [
                -8075720.14927093,
                5761086.003206898
              ],
              [
                -8075738.711372386,
                5761062.491211722
              ],
              [
                -8075730.667795088,
                5761056.510090142
              ],
              [
                -8075795.016413463,
                5760977.518036174
              ],
              [
                -8075836.67801895,
                5761009.692345362
              ],
              [
                -8075828.428196082,
                5761020.829606235
              ],
              [
                -8075851.115208971,
                5761038.979216547
              ],
              [
                -8075831.72812523,
                5761063.728685154
              ],
              [
                -8075827.603213794,
                5761061.047492721
              ],
              [
                -8075810.691076914,
                5761082.703277752
              ],
              [
                -8075804.606832548,
                5761078.062752388
              ],
              [
                -8075786.86971338,
                5761100.543519706
              ],
              [
                -8075776.712118971,
                5761093.376486089
              ],
              [
                -8075772.277839179,
                5761098.738870954
              ],
              [
                -8075768.977910032,
                5761096.573292451
              ],
              [
                -8075730.255303944,
                5761146.020668269
              ]
            ]
          ]
        ]
      }
    },
    {
      "type": "Feature",
      "properties": {
        "dcbat_id": 4,
        "dcbat_dcid": "CLGXLGL10",
        "dcbat_areasqm": 32029,
        "dcbat_areapi2": 344757,
        "dcbat_nbetage": 1
      },
      "geometry": {
        "type": "MultiPolygon",
        "coordinates": [
          [
            [
              [
                -8179272.485682946,
                5711062.6550733
              ],
              [
                -8179257.287060322,
                5711048.350487301
              ],
              [
                -8179246.111602511,
                5711059.525945113
              ],
              [
                -8179175.035690832,
                5710979.509667184
              ],
              [
                -8179182.187983831,
                5710973.25141081
              ],
              [
                -8179186.211148643,
                5710971.016319248
              ],
              [
                -8179179.058855644,
                5710962.075952999
              ],
              [
                -8179174.425027733,
                5710958.7535519
              ],
              [
                -8179232.374962959,
                5710903.806637058
              ],
              [
                -8179244.637007225,
                5710915.017648959
              ],
              [
                -8179341.440139297,
                5710826.457843127
              ],
              [
                -8179367.667788713,
                5710859.871140665
              ],
              [
                -8179384.550151607,
                5710845.702014665
              ],
              [
                -8179397.211923778,
                5710861.378494495
              ],
              [
                -8179420.726643522,
                5710887.304980367
              ],
              [
                -8179444.241363267,
                5710913.834407772
              ],
              [
                -8179335.068246688,
                5711011.694985681
              ],
              [
                -8179329.704026938,
                5711007.224802556
              ],
              [
                -8179272.485682946,
                5711062.6550733
              ]
            ]
          ]
        ]
      }
    },
    {
      "type": "Feature",
      "properties": {
        "dcbat_id": 5,
        "dcbat_dcid": "CLGXMTL02",
        "dcbat_areasqm": 85,
        "dcbat_areapi2": 918,
        "dcbat_nbetage": 1
      },
      "geometry": {
        "type": "MultiPolygon",
        "coordinates": [
          [
            [
              [
                -8186601.103544316,
                5695321.8301528
              ],
              [
                -8186597.130429623,
                5695312.691989006
              ],
              [
                -8186589.184200236,
                5695315.87048076
              ],
              [
                -8186590.773446113,
                5695323.816710147
              ],
              [
                -8186601.103544316,
                5695321.8301528
              ]
            ]
          ]
        ]
      }
    },
    {
      "type": "Feature",
      "properties": {
        "dcbat_id": 6,
        "dcbat_dcid": "CLGXMTL04",
        "dcbat_areasqm": 2893,
        "dcbat_areapi2": 31139,
        "dcbat_nbetage": 1
      },
      "geometry": {
        "type": "MultiPolygon",
        "coordinates": [
          [
            [
              [
                -8189746.906684065,
                5716364.252886554
              ],
              [
                -8189696.81847379,
                5716339.503417947
              ],
              [
                -8189719.407274502,
                5716293.540119106
              ],
              [
                -8189770.08475784,
                5716317.503890297
              ],
              [
                -8189746.906684065,
                5716364.252886554
              ]
            ]
          ]
        ]
      }
    },
    {
      "type": "Feature",
      "properties": {
        "dcbat_id": 7,
        "dcbat_dcid": "CLGXMTL05",
        "dcbat_areasqm": 1512,
        "dcbat_areapi2": 16276,
        "dcbat_nbetage": 1
      },
      "geometry": {
        "type": "MultiPolygon",
        "coordinates": [
          [
            [
              [
                -8211005.78869273,
                5698025.972381942
              ],
              [
                -8210999.57910677,
                5698000.745938976
              ],
              [
                -8210941.752337511,
                5698015.10560651
              ],
              [
                -8210954.559608554,
                5698040.332049476
              ],
              [
                -8211005.78869273,
                5698025.972381942
              ]
            ]
          ]
        ]
      }
    },
    {
      "type": "Feature",
      "properties": {
        "dcbat_id": 8,
        "dcbat_dcid": "CLGXMTL06",
        "dcbat_areasqm": 1253,
        "dcbat_areapi2": 13490,
        "dcbat_nbetage": 1
      },
      "geometry": {
        "type": "MultiPolygon",
        "coordinates": [
          [
            [
              [
                -8210998.802908525,
                5697999.581641609
              ],
              [
                -8210992.981421687,
                5697980.952883727
              ],
              [
                -8210937.09514804,
                5697990.65536179
              ],
              [
                -8210942.916634878,
                5698014.329408266
              ],
              [
                -8210998.802908525,
                5697999.581641609
              ]
            ]
          ]
        ]
      }
    },
    {
      "type": "Feature",
      "properties": {
        "dcbat_id": 9,
        "dcbat_dcid": "CLGXMTL08",
        "dcbat_areasqm": 17320,
        "dcbat_areapi2": 186429,
        "dcbat_nbetage": 1
      },
      "geometry": {
        "type": "MultiPolygon",
        "coordinates": [
          [
            [
              [
                -8212030.230232239,
                5697605.741968235
              ],
              [
                -8211994.010163355,
                5697574.905963645
              ],
              [
                -8211984.710415939,
                5697585.184631841
              ],
              [
                -8211975.410668523,
                5697578.332186377
              ],
              [
                -8211935.274916517,
                5697621.894161115
              ],
              [
                -8211889.755100217,
                5697590.568696135
              ],
              [
                -8211979.326351645,
                5697485.334712217
              ],
              [
                -8212018.483182871,
                5697518.618018758
              ],
              [
                -8212080.155192051,
                5697449.114643333
              ],
              [
                -8212126.653929132,
                5697495.613380413
              ],
              [
                -8212030.230232239,
                5697605.741968235
              ]
            ]
          ]
        ]
      }
    },
    {
      "type": "Feature",
      "properties": {
        "dcbat_id": 10,
        "dcbat_dcid": "CLGXMTL11",
        "dcbat_areasqm": 1684,
        "dcbat_areapi2": 18127,
        "dcbat_nbetage": 1
      },
      "geometry": {
        "type": "MultiPolygon",
        "coordinates": [
          [
            [
              [
                -8189229.913104269,
                5700529.907808214
              ],
              [
                -8189248.966266609,
                5700501.033428173
              ],
              [
                -8189209.48497145,
                5700473.926867317
              ],
              [
                -8189190.235384756,
                5700504.961915253
              ],
              [
                -8189229.913104269,
                5700529.907808214
              ]
            ]
          ]
        ]
      }
    },
    {
      "type": "Feature",
      "properties": {
        "dcbat_id": 11,
        "dcbat_dcid": "CLGXMTL12",
        "dcbat_areasqm": 102,
        "dcbat_areapi2": 1094,
        "dcbat_nbetage": 1
      },
      "geometry": {
        "type": "MultiPolygon",
        "coordinates": [
          [
            [
              [
                -8186595.938495215,
                5695336.133365698
              ],
              [
                -8186592.76000346,
                5695326.200578963
              ],
              [
                -8186582.032593787,
                5695330.571005126
              ],
              [
                -8186587.992265827,
                5695338.914545983
              ],
              [
                -8186595.938495215,
                5695336.133365698
              ]
            ]
          ]
        ]
      }
    },
    {
      "type": "Feature",
      "properties": {
        "dcbat_id": 12,
        "dcbat_dcid": "CMPSMTL01",
        "dcbat_areasqm": 6215,
        "dcbat_areapi2": 66893,
        "dcbat_nbetage": 1
      },
      "geometry": {
        "type": "MultiPolygon",
        "coordinates": [
          [
            [
              [
                -8197745.864083747,
                5690917.409027202
              ],
              [
                -8197682.691560118,
                5690836.35748745
              ],
              [
                -8197635.411495263,
                5690873.307454102
              ],
              [
                -8197697.392084485,
                5690954.756305322
              ],
              [
                -8197745.864083747,
                5690917.409027202
              ]
            ]
          ]
        ]
      }
    },
    {
      "type": "Feature",
      "properties": {
        "dcbat_id": 13,
        "dcbat_dcid": "CMPSMTL02",
        "dcbat_areasqm": 28040,
        "dcbat_areapi2": 301821,
        "dcbat_nbetage": 1
      },
      "geometry": {
        "type": "MultiPolygon",
        "coordinates": [
          [
            [
              [
                -8228185.041204512,
                5688597.509777514
              ],
              [
                -8228055.401130857,
                5688663.508360466
              ],
              [
                -8227967.010171547,
                5688491.047777634
              ],
              [
                -8228097.828791326,
                5688427.013438223
              ],
              [
                -8228185.041204512,
                5688597.509777514
              ]
            ]
          ]
        ]
      }
    },
    {
      "type": "Feature",
      "properties": {
        "dcbat_id": 14,
        "dcbat_dcid": "EQNXGAT01",
        "dcbat_areasqm": 8872,
        "dcbat_areapi2": 95494,
        "dcbat_nbetage": 1
      },
      "geometry": {
        "type": "MultiPolygon",
        "coordinates": [
          [
            [
              [
                -8393355.170554664,
                5712463.77238337
              ],
              [
                -8393346.712679118,
                5712369.149900713
              ],
              [
                -8393294.908191407,
                5712373.907455707
              ],
              [
                -8393301.780215288,
                5712386.065651803
              ],
              [
                -8393274.820736988,
                5712389.237355133
              ],
              [
                -8393272.706268102,
                5712439.455991179
              ],
              [
                -8393277.992440317,
                5712471.701641694
              ],
              [
                -8393276.406588653,
                5712489.674627226
              ],
              [
                -8393291.207870856,
                5712494.960799442
              ],
              [
                -8393292.2651053,
                5712516.634105525
              ],
              [
                -8393316.052880269,
                5712512.405167753
              ],
              [
                -8393314.995645825,
                5712490.203244448
              ],
              [
                -8393339.312038017,
                5712484.917072232
              ],
              [
                -8393335.611717466,
                5712464.829617813
              ],
              [
                -8393355.170554664,
                5712463.77238337
              ]
            ]
          ]
        ]
      }
    },
    {
      "type": "Feature",
      "properties": {
        "dcbat_id": 15,
        "dcbat_dcid": "EQNXMTL01",
        "dcbat_areasqm": 67629,
        "dcbat_areapi2": 727956,
        "dcbat_nbetage": 1
      },
      "geometry": {
        "type": "MultiPolygon",
        "coordinates": [
          [
            [
              [
                -8209415.363633256,
                5699014.788553467
              ],
              [
                -8209046.87154511,
                5698992.789025816
              ],
              [
                -8209059.442703768,
                5698797.15036921
              ],
              [
                -8209303.794600172,
                5698809.721527867
              ],
              [
                -8209300.651810507,
                5698864.327498286
              ],
              [
                -8209427.149094498,
                5698871.005926322
              ],
              [
                -8209420.077817753,
                5698949.182819223
              ],
              [
                -8209450.327168273,
                5698950.754214056
              ],
              [
                -8209445.612983776,
                5698991.610479692
              ],
              [
                -8209431.470430287,
                5698990.03908486
              ],
              [
                -8209431.470430287,
                5699001.038848685
              ],
              [
                -8209417.720725505,
                5699002.217394809
              ],
              [
                -8209415.363633256,
                5699014.788553467
              ]
            ]
          ]
        ]
      }
    },
    {
      "type": "Feature",
      "properties": {
        "dcbat_id": 16,
        "dcbat_dcid": "EQNXVDO01",
        "dcbat_areasqm": 34808,
        "dcbat_areapi2": 374671,
        "dcbat_nbetage": 1
      },
      "geometry": {
        "type": "MultiPolygon",
        "coordinates": [
          [
            [
              [
                -8243369.143508196,
                5686608.409991948
              ],
              [
                -8243248.090164462,
                5686692.988747395
              ],
              [
                -8243113.292772967,
                5686497.928992645
              ],
              [
                -8243231.703030594,
                5686415.464706084
              ],
              [
                -8243232.760265037,
                5686413.878854419
              ],
              [
                -8243369.143508196,
                5686608.409991948
              ]
            ]
          ]
        ]
      }
    },
    {
      "type": "Feature",
      "properties": {
        "dcbat_id": 17,
        "dcbat_dcid": "ESTRMTL01",
        "dcbat_areasqm": 6270,
        "dcbat_areapi2": 67488,
        "dcbat_nbetage": 1
      },
      "geometry": {
        "type": "MultiPolygon",
        "coordinates": [
          [
            [
              [
                -8188952.295117785,
                5700620.232807949
              ],
              [
                -8188918.329090994,
                5700676.120171182
              ],
              [
                -8188906.284400642,
                5700667.929781742
              ],
              [
                -8188901.466524501,
                5700674.674808339
              ],
              [
                -8188857.864745428,
                5700646.490232917
              ],
              [
                -8188859.791895884,
                5700643.358613425
              ],
              [
                -8188841.724860356,
                5700631.313923073
              ],
              [
                -8188879.063400446,
                5700572.535834157
              ],
              [
                -8188952.295117785,
                5700620.232807949
              ]
            ]
          ]
        ]
      }
    },
    {
      "type": "Feature",
      "properties": {
        "dcbat_id": 18,
        "dcbat_dcid": "ESTRMTL01",
        "dcbat_areasqm": 25348,
        "dcbat_areapi2": 272842,
        "dcbat_nbetage": 1
      },
      "geometry": {
        "type": "MultiPolygon",
        "coordinates": [
          [
            [
              [
                -8196785.363606555,
                5693863.076261064
              ],
              [
                -8196751.592131659,
                5693811.028458578
              ],
              [
                -8196718.615279702,
                5693837.251015555
              ],
              [
                -8196702.325509458,
                5693815.994851944
              ],
              [
                -8196717.820656763,
                5693807.849966822
              ],
              [
                -8196700.537607846,
                5693775.667737802
              ],
              [
                -8196677.096231154,
                5693785.203213068
              ],
              [
                -8196663.984952665,
                5693766.132262538
              ],
              [
                -8196631.008100707,
                5693789.970950699
              ],
              [
                -8196634.583903932,
                5693793.149442455
              ],
              [
                -8196583.728035853,
                5693829.304786167
              ],
              [
                -8196569.822134426,
                5693811.028458576
              ],
              [
                -8196526.117872795,
                5693844.005310534
              ],
              [
                -8196556.313544467,
                5693882.147211592
              ],
              [
                -8196578.562986751,
                5693867.446687225
              ],
              [
                -8196592.866199649,
                5693882.544523061
              ],
              [
                -8196600.415117566,
                5693877.37947396
              ],
              [
                -8196667.958067358,
                5693971.542292199
              ],
              [
                -8196761.326262659,
                5693903.204719468
              ],
              [
                -8196750.598852986,
                5693888.504195102
              ],
              [
                -8196785.363606555,
                5693863.076261064
              ]
            ]
          ]
        ]
      }
    },
    {
      "type": "Feature",
      "properties": {
        "dcbat_id": 19,
        "dcbat_dcid": "ESTRMTL02",
        "dcbat_areasqm": 18944,
        "dcbat_areapi2": 203916,
        "dcbat_nbetage": 1
      },
      "geometry": {
        "type": "MultiPolygon",
        "coordinates": [
          [
            [
              [
                -8173990.727126127,
                5711311.236379324
              ],
              [
                -8173911.371687102,
                5711381.556298064
              ],
              [
                -8173894.086343948,
                5711362.30671137
              ],
              [
                -8173907.83604873,
                5711347.378460464
              ],
              [
                -8173905.871805189,
                5711343.449973384
              ],
              [
                -8173869.729724049,
                5711375.270718736
              ],
              [
                -8173776.231731534,
                5711268.415870148
              ],
              [
                -8173838.694676113,
                5711213.024202313
              ],
              [
                -8173821.016484251,
                5711191.810372079
              ],
              [
                -8173837.516129989,
                5711178.453516005
              ],
              [
                -8173945.549524702,
                5711299.843766791
              ],
              [
                -8173954.585044987,
                5711294.343884878
              ],
              [
                -8173959.299229483,
                5711302.200859039
              ],
              [
                -8173973.834631681,
                5711291.98679263
              ],
              [
                -8173990.727126127,
                5711311.236379324
              ]
            ]
          ]
        ]
      }
    },
    {
      "type": "Feature",
      "properties": {
        "dcbat_id": 20,
        "dcbat_dcid": "ESTRMTL04",
        "dcbat_areasqm": 19483,
        "dcbat_areapi2": 209716,
        "dcbat_nbetage": 1
      },
      "geometry": {
        "type": "MultiPolygon",
        "coordinates": [
          [
            [
              [
                -8223191.425087608,
                5691998.15889112
              ],
              [
                -8223095.293343072,
                5692061.64968506
              ],
              [
                -8223029.837384432,
                5691977.254731048
              ],
              [
                -8223018.184068867,
                5691986.148050821
              ],
              [
                -8222968.810810814,
                5691915.614825031
              ],
              [
                -8223042.258767486,
                5691862.868238788
              ],
              [
                -8223079.823974883,
                5691919.29481942
              ],
              [
                -8223116.010586375,
                5691894.148191095
              ],
              [
                -8223132.570561127,
                5691918.681487022
              ],
              [
                -8223111.41059339,
                5691931.254801185
              ],
              [
                -8223119.383914566,
                5691944.748113944
              ],
              [
                -8223125.823904746,
                5691941.068119556
              ],
              [
                -8223151.183771624,
                5691975.784051528
              ],
              [
                -8223142.834950881,
                5691982.296131708
              ],
              [
                -8223151.684700869,
                5691993.817504333
              ],
              [
                -8223176.898139514,
                5691976.284980772
              ],
              [
                -8223191.425087608,
                5691998.15889112
              ]
            ]
          ]
        ]
      }
    },
    {
      "type": "Feature",
      "properties": {
        "dcbat_id": 21,
        "dcbat_dcid": "ESTRMTL05",
        "dcbat_areasqm": 42,
        "dcbat_areapi2": 453,
        "dcbat_nbetage": 1
      },
      "geometry": {
        "type": "MultiPolygon",
        "coordinates": [
          [
            [
              [
                -8189273.64496612,
                5700979.655460584
              ],
              [
                -8189277.16950466,
                5700975.16968426
              ],
              [
                -8189269.319396094,
                5700971.805352017
              ],
              [
                -8189267.076507932,
                5700976.291128341
              ],
              [
                -8189273.64496612,
                5700979.655460584
              ]
            ]
          ]
        ]
      }
    },
    {
      "type": "Feature",
      "properties": {
        "dcbat_id": 22,
        "dcbat_dcid": "EVNMPCL01",
        "dcbat_areasqm": 14600,
        "dcbat_areapi2": 157150,
        "dcbat_nbetage": 1
      },
      "geometry": {
        "type": "MultiPolygon",
        "coordinates": [
          [
            [
              [
                -8219050.988888441,
                5694162.510487431
              ],
              [
                -8218964.354399354,
                5694224.182496611
              ],
              [
                -8218945.265444132,
                5694198.241095924
              ],
              [
                -8218863.036098558,
                5694080.770602247
              ],
              [
                -8218908.555914857,
                5694047.976756096
              ],
              [
                -8218923.729186958,
                5694068.534092489
              ],
              [
                -8218949.670587644,
                5694052.871359998
              ],
              [
                -8218971.696305209,
                5694081.260062638
              ],
              [
                -8218962.396557793,
                5694086.15466654
              ],
              [
                -8218989.80633965,
                5694125.311497766
              ],
              [
                -8218996.169324725,
                5694123.353656204
              ],
              [
                -8219016.237200728,
                5694151.742358844
              ],
              [
                -8219035.81561634,
                5694138.037467915
              ],
              [
                -8219050.988888441,
                5694162.510487431
              ]
            ]
          ]
        ]
      }
    },
    {
      "type": "Feature",
      "properties": {
        "dcbat_id": 23,
        "dcbat_dcid": "EVNMSJM01",
        "dcbat_areasqm": 5204,
        "dcbat_areapi2": 56016,
        "dcbat_nbetage": 1
      },
      "geometry": {
        "type": "MultiPolygon",
        "coordinates": [
          [
            [
              [
                -8239843.774837625,
                5745798.487174383
              ],
              [
                -8239763.281590046,
                5745799.074716336
              ],
              [
                -8239762.400277116,
                5745733.270017586
              ],
              [
                -8239842.599753719,
                5745734.738872468
              ],
              [
                -8239843.774837625,
                5745798.487174383
              ]
            ]
          ]
        ]
      }
    },
    {
      "type": "Feature",
      "properties": {
        "dcbat_id": 24,
        "dcbat_dcid": "HIVDMTL02",
        "dcbat_areasqm": 17789,
        "dcbat_areapi2": 191474,
        "dcbat_nbetage": 1
      },
      "geometry": {
        "type": "MultiPolygon",
        "coordinates": [
          [
            [
              [
                -8215414.66528366,
                5696507.148122163
              ],
              [
                -8215379.913595946,
                5696528.194918946
              ],
              [
                -8215384.318739459,
                5696537.005205972
              ],
              [
                -8215374.040071262,
                5696545.326032607
              ],
              [
                -8215366.208705017,
                5696540.431428704
              ],
              [
                -8215320.199428327,
                5696565.883369001
              ],
              [
                -8215234.543860021,
                5696439.113127908
              ],
              [
                -8215328.520254963,
                5696374.014895995
              ],
              [
                -8215414.66528366,
                5696507.148122163
              ]
            ]
          ]
        ]
      }
    },
    {
      "type": "Feature",
      "properties": {
        "dcbat_id": 25,
        "dcbat_dcid": "KEELSHB01",
        "dcbat_areasqm": 12435,
        "dcbat_areapi2": 133854,
        "dcbat_nbetage": 1
      },
      "geometry": {
        "type": "MultiPolygon",
        "coordinates": [
          [
            [
              [
                -8011834.552202671,
                5684486.810361083
              ],
              [
                -8011842.80202554,
                5684496.710148525
              ],
              [
                -8011820.527503794,
                5684516.097232267
              ],
              [
                -8011713.692297643,
                5684408.849534973
              ],
              [
                -8011733.904363671,
                5684386.98750437
              ],
              [
                -8011720.704647081,
                5684372.137823206
              ],
              [
                -8011741.329204254,
                5684351.925757178
              ],
              [
                -8011762.778743712,
                5684375.02526121
              ],
              [
                -8011781.340845168,
                5684359.35059776
              ],
              [
                -8011813.927645499,
                5684389.462451231
              ],
              [
                -8011816.40259236,
                5684388.224977801
              ],
              [
                -8011824.239924085,
                5684395.649818382
              ],
              [
                -8011820.939994938,
                5684399.774729817
              ],
              [
                -8011872.088896724,
                5684451.74861389
              ],
              [
                -8011834.552202671,
                5684486.810361083
              ]
            ]
          ]
        ]
      }
    },
    {
      "type": "Feature",
      "properties": {
        "dcbat_id": 26,
        "dcbat_dcid": "LSWBMTL01",
        "dcbat_areasqm": 2948,
        "dcbat_areapi2": 31735,
        "dcbat_nbetage": 1
      },
      "geometry": {
        "type": "MultiPolygon",
        "coordinates": [
          [
            [
              [
                -8186259.812992135,
                5695507.771920462
              ],
              [
                -8186242.529943218,
                5695457.512019588
              ],
              [
                -8186216.903353443,
                5695466.252871914
              ],
              [
                -8186206.374599505,
                5695461.882445751
              ],
              [
                -8186201.408206138,
                5695472.609855424
              ],
              [
                -8186192.071386608,
                5695475.788347179
              ],
              [
                -8186195.845845567,
                5695485.323822443
              ],
              [
                -8186191.078107934,
                5695496.448543586
              ],
              [
                -8186201.606861873,
                5695500.02434681
              ],
              [
                -8186210.546369934,
                5695525.650936584
              ],
              [
                -8186259.812992135,
                5695507.771920462
              ]
            ]
          ]
        ]
      }
    },
    {
      "type": "Feature",
      "properties": {
        "dcbat_id": 27,
        "dcbat_dcid": "LSWBMTL02",
        "dcbat_areasqm": 5107,
        "dcbat_areapi2": 54968,
        "dcbat_nbetage": 1
      },
      "geometry": {
        "type": "MultiPolygon",
        "coordinates": [
          [
            [
              [
                -8195172.336179425,
                5691592.427907439
              ],
              [
                -8195136.918825581,
                5691651.10441903
              ],
              [
                -8195071.898907331,
                5691613.5725963
              ],
              [
                -8195108.373495618,
                5691555.42470193
              ],
              [
                -8195172.336179425,
                5691592.427907439
              ]
            ]
          ]
        ]
      }
    },
    {
      "type": "Feature",
      "properties": {
        "dcbat_id": 28,
        "dcbat_dcid": "LSWBMTL03",
        "dcbat_areasqm": 3679,
        "dcbat_areapi2": 39599,
        "dcbat_nbetage": 1
      },
      "geometry": {
        "type": "MultiPolygon",
        "coordinates": [
          [
            [
              [
                -8194020.314930176,
                5716396.761117135
              ],
              [
                -8194027.386206921,
                5716401.475301632
              ],
              [
                -8194022.279173717,
                5716407.76088096
              ],
              [
                -8193930.352576034,
                5716348.833574753
              ],
              [
                -8193949.20931402,
                5716318.977072942
              ],
              [
                -8194034.457483666,
                5716372.797345944
              ],
              [
                -8194020.314930176,
                5716396.761117135
              ]
            ]
          ]
        ]
      }
    },
    {
      "type": "Feature",
      "properties": {
        "dcbat_id": 29,
        "dcbat_dcid": "OVHCBHS01",
        "dcbat_areasqm": 83201,
        "dcbat_areapi2": 895563,
        "dcbat_nbetage": 1
      },
      "geometry": {
        "type": "MultiPolygon",
        "coordinates": [
          [
            [
              [
                -8225837.632974884,
                5670159.025242336
              ],
              [
                -8225834.440173367,
                5670136.675631716
              ],
              [
                -8225862.643253435,
                5670133.482830198
              ],
              [
                -8225857.321917574,
                5670087.719341786
              ],
              [
                -8225911.599543366,
                5670080.269471578
              ],
              [
                -8225922.24221509,
                5670149.97897137
              ],
              [
                -8226072.836019984,
                5670128.693627923
              ],
              [
                -8226092.095044595,
                5670271.478431086
              ],
              [
                -8225954.170230262,
                5670289.930104541
              ],
              [
                -8225961.499116041,
                5670331.737356245
              ],
              [
                -8225900.576064384,
                5670340.440649339
              ],
              [
                -8225898.736964907,
                5670327.745154588
              ],
              [
                -8225775.315397439,
                5670345.309530648
              ],
              [
                -8225770.232219045,
                5670311.42167469
              ],
              [
                -8225690.28016233,
                5670322.976206304
              ],
              [
                -8225692.829620224,
                5670335.723495774
              ],
              [
                -8225630.622847609,
                5670343.371869456
              ],
              [
                -8225627.563498137,
                5670322.976206304
              ],
              [
                -8225588.062322957,
                5670328.243722747
              ],
              [
                -8225581.144586337,
                5670277.158898472
              ],
              [
                -8225642.33994875,
                5670269.176894679
              ],
              [
                -8225636.486479302,
                5670237.248879507
              ],
              [
                -8225568.905513855,
                5670246.827284059
              ],
              [
                -8225565.180578751,
                5670218.62420399
              ],
              [
                -8225604.026330544,
                5670213.835001714
              ],
              [
                -8225597.108593923,
                5670172.328581991
              ],
              [
                -8225670.010895232,
                5670161.685910267
              ],
              [
                -8225672.557140972,
                5670181.347046828
              ],
              [
                -8225837.632974884,
                5670159.025242336
              ]
            ]
          ]
        ]
      }
    },
    {
      "type": "Feature",
      "properties": {
        "dcbat_id": 30,
        "dcbat_dcid": "QSCLLVS01",
        "dcbat_areasqm": 24207,
        "dcbat_areapi2": 260566,
        "dcbat_nbetage": 1
      },
      "geometry": {
        "type": "MultiPolygon",
        "coordinates": [
          [
            [
              [
                -7939870.00311968,
                5889503.491853324
              ],
              [
                -7939734.440744998,
                5889367.929478642
              ],
              [
                -7939812.297514241,
                5889288.698766412
              ],
              [
                -7939849.393974881,
                5889324.87926506
              ],
              [
                -7939863.591385743,
                5889311.139835194
              ],
              [
                -7939962.973261776,
                5889419.681331139
              ],
              [
                -7939870.00311968,
                5889503.491853324
              ]
            ]
          ]
        ]
      }
    },
    {
      "type": "Feature",
      "properties": {
        "dcbat_id": 31,
        "dcbat_dcid": "SMRTMTL01",
        "dcbat_areasqm": 4097,
        "dcbat_areapi2": 44103,
        "dcbat_nbetage": 1
      },
      "geometry": {
        "type": "MultiPolygon",
        "coordinates": [
          [
            [
              [
                -8189198.06621492,
                5707263.690019513
              ],
              [
                -8189170.834185671,
                5707250.766344614
              ],
              [
                -8189165.603174402,
                5707261.689926969
              ],
              [
                -8189136.371052609,
                5707248.766252071
              ],
              [
                -8189161.141429497,
                5707187.686502851
              ],
              [
                -8189198.989334555,
                5707205.99504229
              ],
              [
                -8189204.681905641,
                5707194.609900117
              ],
              [
                -8189226.682923622,
                5707197.994672114
              ],
              [
                -8189198.06621492,
                5707263.690019513
              ]
            ]
          ]
        ]
      }
    },
    {
      "type": "Feature",
      "properties": {
        "dcbat_id": 32,
        "dcbat_dcid": "UBCNMTL01",
        "dcbat_areasqm": 578,
        "dcbat_areapi2": 6222,
        "dcbat_nbetage": 1
      },
      "geometry": {
        "type": "MultiPolygon",
        "coordinates": [
          [
            [
              [
                -8188985.073373157,
                5700174.538713584
              ],
              [
                -8188970.013981213,
                5700164.285510558
              ],
              [
                -8188987.796880211,
                5700138.81270929
              ],
              [
                -8189003.497097344,
                5700149.546531208
              ],
              [
                -8188985.073373157,
                5700174.538713584
              ]
            ]
          ]
        ]
      }
    },
    {
      "type": "Feature",
      "properties": {
        "dcbat_id": 33,
        "dcbat_dcid": "VNTGMTL01",
        "dcbat_areasqm": 12255,
        "dcbat_areapi2": 131916,
        "dcbat_nbetage": 1
      },
      "geometry": {
        "type": "MultiPolygon",
        "coordinates": [
          [
            [
              [
                -8210567.722585954,
                5698514.058087574
              ],
              [
                -8210480.109176086,
                5698528.741899284
              ],
              [
                -8210474.235651403,
                5698505.247800549
              ],
              [
                -8210449.762631887,
                5698507.20564211
              ],
              [
                -8210442.910186422,
                5698459.238523859
              ],
              [
                -8210433.120978616,
                5698459.727984249
              ],
              [
                -8210420.884468858,
                5698437.702266685
              ],
              [
                -8210417.947706516,
                5698429.870900439
              ],
              [
                -8210545.207408,
                5698404.418960143
              ],
              [
                -8210567.722585954,
                5698514.058087574
              ]
            ]
          ]
        ]
      }
    },
    {
      "type": "Feature",
      "properties": {
        "dcbat_id": 34,
        "dcbat_dcid": "VNTGMTL02",
        "dcbat_areasqm": 14951,
        "dcbat_areapi2": 160933,
        "dcbat_nbetage": 1
      },
      "geometry": {
        "type": "MultiPolygon",
        "coordinates": [
          [
            [
              [
                -8215558.321908218,
                5696656.066445917
              ],
              [
                -8215501.789233136,
                5696691.307594022
              ],
              [
                -8215484.877050493,
                5696702.966729323
              ],
              [
                -8215470.129283835,
                5696682.009376705
              ],
              [
                -8215403.897155072,
                5696723.611979783
              ],
              [
                -8215363.013926009,
                5696658.723429352
              ],
              [
                -8215417.73590229,
                5696623.406409198
              ],
              [
                -8215430.543173335,
                5696645.528059185
              ],
              [
                -8215442.319795712,
                5696640.893173817
              ],
              [
                -8215420.783538537,
                5696612.993931569
              ],
              [
                -8215495.670978256,
                5696569.43195683
              ],
              [
                -8215558.321908218,
                5696656.066445917
              ]
            ]
          ]
        ]
      }
    },
    {
      "type": "Feature",
      "properties": {
        "dcbat_id": 35,
        "dcbat_dcid": "VNTGMTL03",
        "dcbat_areasqm": 29877,
        "dcbat_areapi2": 321589,
        "dcbat_nbetage": 1
      },
      "geometry": {
        "type": "MultiPolygon",
        "coordinates": [
          [
            [
              [
                -8217949.213549831,
                5696151.188053302
              ],
              [
                -8217831.253595764,
                5696238.801463169
              ],
              [
                -8217845.447947083,
                5696260.337720344
              ],
              [
                -8217782.797017122,
                5696302.920774302
              ],
              [
                -8217683.926018277,
                5696163.914023451
              ],
              [
                -8217823.911689909,
                5696067.979786947
              ],
              [
                -8217870.410426989,
                5696131.609637689
              ],
              [
                -8217914.951322509,
                5696099.305251928
              ],
              [
                -8217949.213549831,
                5696151.188053302
              ]
            ]
          ]
        ]
      }
    },
    {
      "type": "Feature",
      "properties": {
        "dcbat_id": 36,
        "dcbat_dcid": "VNTGQBC01",
        "dcbat_areasqm": 41566,
        "dcbat_areapi2": 447413,
        "dcbat_nbetage": 1
      },
      "geometry": {
        "type": "MultiPolygon",
        "coordinates": [
          [
            [
              [
                -7937973.456393045,
                5908868.185082889
              ],
              [
                -7937908.503035106,
                5908891.545501096
              ],
              [
                -7937903.375138427,
                5908881.859474035
              ],
              [
                -7937862.351964992,
                5908892.115267393
              ],
              [
                -7937849.817106442,
                5908860.77812102
              ],
              [
                -7937887.991448388,
                5908844.254898385
              ],
              [
                -7937874.317057244,
                5908851.092093958
              ],
              [
                -7937821.898557853,
                5908722.324910674
              ],
              [
                -7937733.584781707,
                5908757.080654835
              ],
              [
                -7937803.096270028,
                5908881.289707737
              ],
              [
                -7937807.65440041,
                5908879.580408844
              ],
              [
                -7937822.468324151,
                5908906.929191134
              ],
              [
                -7937752.95683583,
                5908924.022180066
              ],
              [
                -7937751.247536937,
                5908908.06872373
              ],
              [
                -7937722.759222051,
                5908917.754750791
              ],
              [
                -7937673.189554149,
                5908791.266632698
              ],
              [
                -7937709.654597203,
                5908773.034111171
              ],
              [
                -7937706.235999417,
                5908766.766681896
              ],
              [
                -7937717.631325372,
                5908762.208551514
              ],
              [
                -7937704.526700524,
                5908733.720236628
              ],
              [
                -7937773.468422548,
                5908642.557628994
              ],
              [
                -7937755.23590102,
                5908630.592536742
              ],
              [
                -7937784.863748502,
                5908591.278662199
              ],
              [
                -7937847.538041251,
                5908639.708797505
              ],
              [
                -7937830.445052319,
                5908657.941319033
              ],
              [
                -7937853.235704227,
                5908713.778416209
              ],
              [
                -7937874.317057244,
                5908706.371454339
              ],
              [
                -7937880.01472022,
                5908714.917948804
              ],
              [
                -7937903.944904724,
                5908704.092389148
              ],
              [
                -7937973.456393045,
                5908868.185082889
              ]
            ]
          ]
        ]
      }
    },
    {
      "type": "Feature",
      "properties": {
        "dcbat_id": 37,
        "dcbat_dcid": "VNTGQBC02",
        "dcbat_areasqm": 25647,
        "dcbat_areapi2": 276066,
        "dcbat_nbetage": 1
      },
      "geometry": {
        "type": "MultiPolygon",
        "coordinates": [
          [
            [
              [
                -7937520.492186361,
                5908762.778317812
              ],
              [
                -7937369.504117466,
                5908611.790248917
              ],
              [
                -7937454.969062123,
                5908527.464836855
              ],
              [
                -7937606.526897316,
                5908680.162204644
              ],
              [
                -7937520.492186361,
                5908762.778317812
              ]
            ]
          ]
        ]
      }
    },
    {
      "type": "Feature",
      "properties": {
        "dcbat_id": 38,
        "dcbat_dcid": "GGLEBHS01",
        "dcbat_areasqm": 1401667,
        "dcbat_areapi2": 15087405,
        "dcbat_nbetage": 0
      },
      "geometry": {
        "type": "MultiPolygon",
        "coordinates": [
          [
            [
              [
                -8226344.421016387,
                5666757.282028079
              ],
              [
                -8226230.468969553,
                5666029.742036755
              ],
              [
                -8228259.691957403,
                5665573.93384942
              ],
              [
                -8228119.443284376,
                5666042.890349851
              ],
              [
                -8227724.99389149,
                5666507.464079251
              ],
              [
                -8226344.421016387,
                5666757.282028079
              ]
            ]
          ]
        ]
      }
    },
    {
      "type": "Feature",
      "properties": {
        "dcbat_id": 39,
        "dcbat_dcid": "ARGOBCO01",
        "dcbat_areasqm": 8755,
        "dcbat_areapi2": 94234,
        "dcbat_nbetage": 1
      },
      "geometry": {
        "type": "MultiPolygon",
        "coordinates": [
          [
            [
              [
                -7590459.780445179,
                6311571.451496894
              ],
              [
                -7590392.031137022,
                6311568.667278751
              ],
              [
                -7590395.279391522,
                6311518.551352168
              ],
              [
                -7590382.28637352,
                6311518.551352168
              ],
              [
                -7590384.606555306,
                6311462.866989301
              ],
              [
                -7590396.671500594,
                6311463.331025657
              ],
              [
                -7590397.135536952,
                6311449.409934941
              ],
              [
                -7590465.348881465,
                6311452.194153084
              ],
              [
                -7590459.780445179,
                6311571.451496894
              ]
            ]
          ]
        ]
      }
    },
    {
      "type": "Feature",
      "properties": {
        "dcbat_id": 40,
        "dcbat_dcid": "KEELBCO01",
        "dcbat_areasqm": 3776,
        "dcbat_areapi2": 40645,
        "dcbat_nbetage": 1
      },
      "geometry": {
        "type": "MultiPolygon",
        "coordinates": [
          [
            [
              [
                -7590928.679126457,
                6312591.989529662
              ],
              [
                -7590904.263443299,
                6312582.613907329
              ],
              [
                -7590897.427052014,
                6312597.458642689
              ],
              [
                -7590874.769298044,
                6312586.715742099
              ],
              [
                -7590913.248414701,
                6312510.734136112
              ],
              [
                -7590956.805993455,
                6312531.438635429
              ],
              [
                -7590928.679126457,
                6312591.989529662
              ]
            ]
          ]
        ]
      }
    },
    {
      "type": "Feature",
      "properties": {
        "dcbat_id": 41,
        "dcbat_dcid": "MWCAESC01",
        "dcbat_areasqm": 13053,
        "dcbat_areapi2": 140497,
        "dcbat_nbetage": 1
      },
      "geometry": {
        "type": "MultiPolygon",
        "coordinates": [
          [
            [
              [
                -7731370.921209764,
                6164369.632145784
              ],
              [
                -7731266.321425022,
                6164285.95231799
              ],
              [
                -7731332.299750783,
                6164207.904786298
              ],
              [
                -7731429.658011965,
                6164293.998455279
              ],
              [
                -7731370.921209764,
                6164369.632145784
              ]
            ]
          ]
        ]
      }
    },
    {
      "type": "Feature",
      "properties": {
        "dcbat_id": 42,
        "dcbat_dcid": "MSFTAUG01",
        "dcbat_areasqm": 70320,
        "dcbat_areapi2": 756914,
        "dcbat_nbetage": 0
      },
      "geometry": {
        "type": "MultiPolygon",
        "coordinates": [
          [
            [
              [
                -7952090.065314925,
                5903230.401406881
              ],
              [
                -7952191.446644752,
                5902971.315786213
              ],
              [
                -7951869.601153239,
                5902832.922224862
              ],
              [
                -7951859.945788493,
                5902900.50977808
              ],
              [
                -7951871.210380696,
                5902939.131237062
              ],
              [
                -7951863.164243408,
                5902980.971150958
              ],
              [
                -7951856.727333577,
                5903008.328017737
              ],
              [
                -7952090.065314925,
                5903230.401406881
              ]
            ]
          ]
        ]
      }
    },
    {
      "type": "Feature",
      "properties": {
        "dcbat_id": 43,
        "dcbat_dcid": "MSFTDNA01",
        "dcbat_areasqm": 30130,
        "dcbat_areapi2": 324319,
        "dcbat_nbetage": 1
      },
      "geometry": {
        "type": "MultiPolygon",
        "coordinates": [
          [
            [
              [
                -7983458.225160006,
                5890570.002182896
              ],
              [
                -7983440.174034151,
                5890477.159816267
              ],
              [
                -7983163.789218314,
                5890501.700534995
              ],
              [
                -7983171.835355602,
                5890619.576446261
              ],
              [
                -7983458.225160006,
                5890570.002182896
              ]
            ]
          ]
        ]
      }
    },
    {
      "type": "Feature",
      "properties": {
        "dcbat_id": 44,
        "dcbat_dcid": "MSFTLVS01",
        "dcbat_areasqm": 416068,
        "dcbat_areapi2": 4478514,
        "dcbat_nbetage": 0
      },
      "geometry": {
        "type": "MultiPolygon",
        "coordinates": [
          [
            [
              [
                -7932955.368825912,
                5894820.990542507
              ],
              [
                -7932672.144793381,
                5895088.122300463
              ],
              [
                -7931922.244798156,
                5894106.493551347
              ],
              [
                -7932189.376556111,
                5893948.789260507
              ],
              [
                -7932955.368825912,
                5894820.990542507
              ]
            ]
          ]
        ]
      }
    },
    {
      "type": "Feature",
      "properties": {
        "dcbat_id": 45,
        "dcbat_dcid": "MSFTALO01",
        "dcbat_areasqm": 254040,
        "dcbat_areapi2": 2734458,
        "dcbat_nbetage": 0
      },
      "geometry": {
        "type": "MultiPolygon",
        "coordinates": [
          [
            [
              [
                -7942714.931049187,
                5907968.58002428
              ],
              [
                -7942439.753153943,
                5908227.665644948
              ],
              [
                -7942085.723113278,
                5908301.690107997
              ],
              [
                -7942058.366246499,
                5908259.850194099
              ],
              [
                -7942117.907662429,
                5908110.192040546
              ],
              [
                -7942146.873756666,
                5907955.706204619
              ],
              [
                -7942188.713670562,
                5907818.921870726
              ],
              [
                -7942233.772039374,
                5907736.85127039
              ],
              [
                -7942257.910451238,
                5907545.353202939
              ],
              [
                -7942545.962166143,
                5907812.484960896
              ],
              [
                -7942568.491350548,
                5907794.783458862
              ],
              [
                -7942714.931049187,
                5907968.58002428
              ]
            ]
          ]
        ]
      }
    },
    {
      "type": "Feature",
      "properties": {
        "dcbat_id": 46,
        "dcbat_dcid": "CLGXMTL07",
        "dcbat_areasqm": 2912,
        "dcbat_areapi2": 31340,
        "dcbat_nbetage": -1
      },
      "geometry": {
        "type": "MultiPolygon",
        "coordinates": [
          [
            [
              [
                -8189543.066172903,
                5701014.083997525
              ],
              [
                -8189559.963061208,
                5700990.750199391
              ],
              [
                -8189487.547825617,
                5700940.26068791
              ],
              [
                -8189470.650937313,
                5700965.404866934
              ],
              [
                -8189492.777814854,
                5700979.68676062
              ],
              [
                -8189486.944365321,
                5700989.140971934
              ],
              [
                -8189509.272396294,
                5701005.233246509
              ],
              [
                -8189515.709306125,
                5700996.784802357
              ],
              [
                -8189543.066172903,
                5701014.083997525
              ]
            ]
          ]
        ]
      }
    },
    {
      "type": "Feature",
      "properties": {
        "dcbat_id": 47,
        "dcbat_dcid": "KEELSHB02",
        "dcbat_areasqm": 2898,
        "dcbat_areapi2": 31190,
        "dcbat_nbetage": 1
      },
      "geometry": {
        "type": "MultiPolygon",
        "coordinates": [
          [
            [
              [
                -8011673.505163525,
                5685872.44754725
              ],
              [
                -8011671.269774677,
                5685839.661844146
              ],
              [
                -8011579.61883191,
                5685847.113140306
              ],
              [
                -8011583.34447999,
                5685877.663454562
              ],
              [
                -8011673.505163525,
                5685872.44754725
              ]
            ]
          ]
        ]
      }
    },
    {
      "type": "Feature",
      "properties": {
        "dcbat_id": 48,
        "dcbat_dcid": "KEELSHB03",
        "dcbat_areasqm": 16218,
        "dcbat_areapi2": 174574,
        "dcbat_nbetage": 1
      },
      "geometry": {
        "type": "MultiPolygon",
        "coordinates": [
          [
            [
              [
                -8013247.009324629,
                5685401.675791961
              ],
              [
                -8013179.94765919,
                5685351.006978073
              ],
              [
                -8013135.23988223,
                5685409.127088121
              ],
              [
                -8013063.707439095,
                5685356.222885385
              ],
              [
                -8013043.588939463,
                5685388.263458873
              ],
              [
                -8013112.88599375,
                5685438.187143145
              ],
              [
                -8013089.041846039,
                5685471.717975864
              ],
              [
                -8013159.829159558,
                5685523.131919368
              ],
              [
                -8013247.009324629,
                5685401.675791961
              ]
            ]
          ]
        ]
      }
    },
    {
      "type": "Feature",
      "properties": {
        "dcbat_id": 49,
        "dcbat_dcid": "KEELSHB04",
        "dcbat_areasqm": 29347,
        "dcbat_areapi2": 315890,
        "dcbat_nbetage": 0
      },
      "geometry": {
        "type": "MultiPolygon",
        "coordinates": [
          [
            [
              [
                -8011557.24747716,
                5684398.055695486
              ],
              [
                -8011479.00886748,
                5684240.088216894
              ],
              [
                -8011294.961852329,
                5684396.565436254
              ],
              [
                -8011436.536479368,
                5684463.627101694
              ],
              [
                -8011557.24747716,
                5684398.055695486
              ]
            ]
          ]
        ]
      }
    },
    {
      "type": "Feature",
      "properties": {
        "dcbat_id": 50,
        "dcbat_dcid": "AWSDVAR01",
        "dcbat_areasqm": 30540,
        "dcbat_areapi2": 328733,
        "dcbat_nbetage": 1
      },
      "geometry": {
        "type": "MultiPolygon",
        "coordinates": [
          [
            [
              [
                -8169047.163909427,
                5720236.489053356
              ],
              [
                -8168983.082762451,
                5720291.62864494
              ],
              [
                -8168749.112063027,
                5720038.2845755
              ],
              [
                -8168820.644506163,
                5719978.67420622
              ],
              [
                -8169047.163909427,
                5720236.489053356
              ]
            ]
          ]
        ]
      }
    },
    {
      "type": "Feature",
      "properties": {
        "dcbat_id": 51,
        "dcbat_dcid": "KEELCWV01",
        "dcbat_areasqm": 35571,
        "dcbat_areapi2": 382881,
        "dcbat_nbetage": 1
      },
      "geometry": {
        "type": "MultiPolygon",
        "coordinates": [
          [
            [
              [
                -8100037.217350554,
                5653335.940457231
              ],
              [
                -8099980.576769872,
                5653161.605163443
              ],
              [
                -8100042.366494252,
                5653146.157732348
              ],
              [
                -8100001.908936622,
                5653045.381634251
              ],
              [
                -8099854.054953282,
                5653105.700174717
              ],
              [
                -8099851.112585454,
                5653111.584910373
              ],
              [
                -8099803.299108255,
                5653122.618789727
              ],
              [
                -8099834.193970446,
                5653214.567784341
              ],
              [
                -8099883.478631559,
                5653202.062721074
              ],
              [
                -8099911.431125921,
                5653280.771060463
              ],
              [
                -8099957.03782725,
                5653267.530405238
              ],
              [
                -8099989.403873354,
                5653349.916704413
              ],
              [
                -8100037.217350554,
                5653335.940457231
              ]
            ]
          ]
        ]
      }
    },
    {
      "type": "Feature",
      "properties": {
        "dcbat_id": 52,
        "dcbat_dcid": null,
        "dcbat_areasqm": 9125,
        "dcbat_areapi2": 98225,
        "dcbat_nbetage": 1
      },
      "geometry": {
        "type": "MultiPolygon",
        "coordinates": [
          [
            [
              [
                -7625560.520253388,
                6184579.94196696
              ],
              [
                -7625522.754470308,
                6184543.771921193
              ],
              [
                -7625464.510058374,
                6184605.739720191
              ],
              [
                -7625450.148422555,
                6184592.175953029
              ],
              [
                -7625454.669678276,
                6184587.388741089
              ],
              [
                -7625445.893123053,
                6184577.54836099
              ],
              [
                -7625500.414147923,
                6184521.697555027
              ],
              [
                -7625495.626935983,
                6184517.974167963
              ],
              [
                -7625503.33966633,
                6184510.527393834
              ],
              [
                -7625512.382177772,
                6184519.835861495
              ],
              [
                -7625521.690645432,
                6184509.463568958
              ],
              [
                -7625525.945944934,
                6184512.920999804
              ],
              [
                -7625560.520253388,
                6184475.421172942
              ],
              [
                -7625565.573421547,
                6184481.538165976
              ],
              [
                -7625593.498824528,
                6184451.485113244
              ],
              [
                -7625600.41368622,
                6184459.197843591
              ],
              [
                -7625607.062591692,
                6184452.548938119
              ],
              [
                -7625612.913628506,
                6184458.665931153
              ],
              [
                -7625613.977453382,
                6184468.772267471
              ],
              [
                -7625612.381716069,
                6184475.687129161
              ],
              [
                -7625609.72215388,
                6184477.814778913
              ],
              [
                -7625617.434884227,
                6184485.793465478
              ],
              [
                -7625606.796635472,
                6184497.22958289
              ],
              [
                -7625603.871117065,
                6184494.83597692
              ],
              [
                -7625573.020195675,
                6184528.08050428
              ],
              [
                -7625593.498824528,
                6184546.165527163
              ],
              [
                -7625560.520253388,
                6184579.144098303
              ],
              [
                -7625560.786209607,
                6184579.676010742
              ],
              [
                -7625559.722384731,
                6184578.878142085
              ],
              [
                -7625560.254297169,
                6184579.144098303
              ],
              [
                -7625560.254297169,
                6184579.144098303
              ],
              [
                -7625560.254297169,
                6184579.144098303
              ],
              [
                -7625560.520253388,
                6184579.94196696
              ]
            ]
          ]
        ]
      }
    },
    {
      "type": "Feature",
      "properties": {
        "dcbat_id": 53,
        "dcbat_dcid": null,
        "dcbat_areasqm": 5540,
        "dcbat_areapi2": 59631,
        "dcbat_nbetage": 1
      },
      "geometry": {
        "type": "MultiPolygon",
        "coordinates": [
          [
            [
              [
                -8098532.508882357,
                5868191.38174377
              ],
              [
                -8098480.882920523,
                5868158.496713287
              ],
              [
                -8098493.612609742,
                5868139.04857698
              ],
              [
                -8098486.894162654,
                5868134.098142284
              ],
              [
                -8098492.905404786,
                5868125.611682804
              ],
              [
                -8098499.270249395,
                5868129.147707587
              ],
              [
                -8098509.878323744,
                5868114.650005977
              ],
              [
                -8098501.391864265,
                5868108.638763845
              ],
              [
                -8098519.07198818,
                5868082.825782929
              ],
              [
                -8098578.830807015,
                5868124.550875369
              ],
              [
                -8098578.640984598,
                5868124.5353957
              ],
              [
                -8098578.640984598,
                5868124.5353957
              ],
              [
                -8098532.508882357,
                5868191.38174377
              ]
            ]
          ]
        ]
      }
    }
  ]
}