{
  "type": "FeatureCollection",
  "name": "DCbati_poly-2026-08-07",
  "features": [
    {
      "type": "Feature",
      "properties": {
        "dcbat_id": 1,
        "dcbat_dcid": "AWSDVAR01",
        "dcbat_areasqm": 28170,
        "dcbat_areapi2": 303222,
        "dcbat_nbetage": 1,
        "date_collecte": "2026-08-07"
      },
      "geometry": {
        "type": "MultiPolygon",
        "coordinates": [
          [
            [
              [
                -73.38260388912202,
                45.624322360596686
              ],
              [
                -73.38053150209913,
                45.622736111068065
              ],
              [
                -73.37997886555969,
                45.623090404195615
              ],
              [
                -73.38201671279886,
                45.6246444362375
              ],
              [
                -73.38260388912202,
                45.624322360596686
              ]
            ]
          ]
        ]
      }
    },
    {
      "type": "Feature",
      "properties": {
        "dcbat_id": 2,
        "dcbat_dcid": "BNFDMTL01",
        "dcbat_areasqm": 2648,
        "dcbat_areapi2": 28506,
        "dcbat_nbetage": 1,
        "date_collecte": "2026-08-07"
      },
      "geometry": {
        "type": "MultiPolygon",
        "coordinates": [
          [
            [
              [
                -73.5721968501514,
                45.508956694587944
              ],
              [
                -73.5719321736523,
                45.50925346932086
              ],
              [
                -73.57158280067351,
                45.50910508215
              ],
              [
                -73.57185806423256,
                45.50878357527112
              ],
              [
                -73.5721968501514,
                45.508956694587944
              ]
            ]
          ]
        ]
      }
    },
    {
      "type": "Feature",
      "properties": {
        "dcbat_id": 3,
        "dcbat_dcid": "CLGXDMD01",
        "dcbat_areasqm": 13170,
        "dcbat_areapi2": 141763,
        "dcbat_nbetage": 1,
        "date_collecte": "2026-08-07"
      },
      "geometry": {
        "type": "MultiPolygon",
        "coordinates": [
          [
            [
              [
                -72.54551918765978,
                45.88003799431306
              ],
              [
                -72.54521163356785,
                45.87987289892416
              ],
              [
                -72.54503006548947,
                45.88003154528365
              ],
              [
                -72.5447929153463,
                45.87990901358241
              ],
              [
                -72.54516716791602,
                45.87957108264817
              ],
              [
                -72.54523757186476,
                45.879563343747755
              ],
              [
                -72.5454284036206,
                45.87966265955476
              ],
              [
                -72.54559514981503,
                45.87951562050463
              ],
              [
                -72.54552289313078,
                45.879478215771904
              ],
              [
                -72.54610094660475,
                45.87898421297393
              ],
              [
                -72.54647519917447,
                45.87918542613194
              ],
              [
                -72.54640108975471,
                45.87925507667073
              ],
              [
                -72.54660489065901,
                45.8793685810654
              ],
              [
                -72.54643073352263,
                45.87952335941171
              ],
              [
                -72.54639367881273,
                45.87950659177836
              ],
              [
                -72.54624175450226,
                45.87964202251856
              ],
              [
                -72.5461870988052,
                45.87961300167345
              ],
              [
                -72.54602776355276,
                45.87975359140418
              ],
              [
                -72.54593651632969,
                45.879708770404804
              ],
              [
                -72.54589668251657,
                45.87974230554443
              ],
              [
                -72.54586703874867,
                45.87972876250973
              ],
              [
                -72.54551918765978,
                45.88003799431306
              ]
            ]
          ]
        ]
      }
    },
    {
      "type": "Feature",
      "properties": {
        "dcbat_id": 4,
        "dcbat_dcid": "CLGXLGL10",
        "dcbat_areasqm": 29999,
        "dcbat_areapi2": 322909,
        "dcbat_nbetage": 1,
        "date_collecte": "2026-08-07"
      },
      "geometry": {
        "type": "MultiPolygon",
        "coordinates": [
          [
            [
              [
                -73.47561643767449,
                45.56599538403514
              ],
              [
                -73.47551762511483,
                45.56592373595425
              ],
              [
                -73.47541881255518,
                45.56597561905645
              ],
              [
                -73.47479417601734,
                45.565488904261706
              ],
              [
                -73.47488240151702,
                45.56542960877011
              ],
              [
                -73.47476594385743,
                45.5653530186675
              ],
              [
                -73.47487181445706,
                45.565273957806895
              ],
              [
                -73.47508002663635,
                45.5654197261821
              ],
              [
                -73.4754364576551,
                45.56521219143213
              ],
              [
                -73.47534470313543,
                45.56512324773317
              ],
              [
                -73.47628695147216,
                45.56450557927236
              ],
              [
                -73.47656927307118,
                45.564713116632774
              ],
              [
                -73.47661867935102,
                45.56469088052368
              ],
              [
                -73.4766539695509,
                45.5647304113782
              ],
              [
                -73.47671396289068,
                45.564698292561026
              ],
              [
                -73.47718685156904,
                45.56509112914059
              ],
              [
                -73.47623754519235,
                45.56567667290547
              ],
              [
                -73.47618108087252,
                45.56565937845138
              ],
              [
                -73.47561643767449,
                45.56599538403514
              ]
            ]
          ]
        ]
      }
    },
    {
      "type": "Feature",
      "properties": {
        "dcbat_id": 5,
        "dcbat_dcid": "CLGXMTL02",
        "dcbat_areasqm": 85,
        "dcbat_areapi2": 918,
        "dcbat_nbetage": 1,
        "date_collecte": "2026-08-07"
      },
      "geometry": {
        "type": "MultiPolygon",
        "coordinates": [
          [
            [
              [
                -73.541488963036,
                45.46686564244461
              ],
              [
                -73.54145327193946,
                45.46680807125844
              ],
              [
                -73.54138188974636,
                45.4668280960255
              ],
              [
                -73.54139616618498,
                45.46687815791209
              ],
              [
                -73.541488963036,
                45.46686564244461
              ]
            ]
          ]
        ]
      }
    },
    {
      "type": "Feature",
      "properties": {
        "dcbat_id": 6,
        "dcbat_dcid": "CLGXMTL04",
        "dcbat_areasqm": 2893,
        "dcbat_areapi2": 31139,
        "dcbat_nbetage": 1,
        "date_collecte": "2026-08-07"
      },
      "geometry": {
        "type": "MultiPolygon",
        "coordinates": [
          [
            [
              [
                -73.56974819344867,
                45.59927869245651
              ],
              [
                -73.56929824340023,
                45.59912313530859
              ],
              [
                -73.56950116204953,
                45.598834242318254
              ],
              [
                -73.56995640562796,
                45.59898486192616
              ],
              [
                -73.56974819344867,
                45.59927869245651
              ]
            ]
          ]
        ]
      }
    },
    {
      "type": "Feature",
      "properties": {
        "dcbat_id": 7,
        "dcbat_dcid": "CLGXMTL05",
        "dcbat_areasqm": 1512,
        "dcbat_areapi2": 16276,
        "dcbat_nbetage": 1,
        "date_collecte": "2026-08-07"
      },
      "geometry": {
        "type": "MultiPolygon",
        "coordinates": [
          [
            [
              [
                -73.76071997976545,
                45.48389937860043
              ],
              [
                -73.76066419810569,
                45.483740497816605
              ],
              [
                -73.76014473139912,
                45.48383093770233
              ],
              [
                -73.76025978107239,
                45.483989818231066
              ],
              [
                -73.76071997976545,
                45.48389937860043
              ]
            ]
          ]
        ]
      }
    },
    {
      "type": "Feature",
      "properties": {
        "dcbat_id": 8,
        "dcbat_dcid": "CLGXMTL06",
        "dcbat_areasqm": 1253,
        "dcbat_areapi2": 13490,
        "dcbat_nbetage": 1,
        "date_collecte": "2026-08-07"
      },
      "geometry": {
        "type": "MultiPolygon",
        "coordinates": [
          [
            [
              [
                -73.76065722539822,
                45.48373316484654
              ],
              [
                -73.76060493009219,
                45.483615837195615
              ],
              [
                -73.76010289515429,
                45.483676945377645
              ],
              [
                -73.76015519046032,
                45.48382604906357
              ],
              [
                -73.76065722539822,
                45.48373316484654
              ]
            ]
          ]
        ]
      }
    },
    {
      "type": "Feature",
      "properties": {
        "dcbat_id": 9,
        "dcbat_dcid": "CLGXMTL08",
        "dcbat_areasqm": 17320,
        "dcbat_areapi2": 186429,
        "dcbat_nbetage": 1,
        "date_collecte": "2026-08-07"
      },
      "geometry": {
        "type": "MultiPolygon",
        "coordinates": [
          [
            [
              [
                -73.76992269469173,
                45.48125263162125
              ],
              [
                -73.76959732427703,
                45.481058411600245
              ],
              [
                -73.76951378322461,
                45.48112315168163
              ],
              [
                -73.76943024217218,
                45.48107999163564
              ],
              [
                -73.76906969657752,
                45.481354365650795
              ],
              [
                -73.7686607851104,
                45.48115706312316
              ],
              [
                -73.76946541735214,
                45.480494244885094
              ],
              [
                -73.76981716915182,
                45.48070388126394
              ],
              [
                -73.7703711782363,
                45.480266110292426
              ],
              [
                -73.77078888349844,
                45.48055898561475
              ],
              [
                -73.76992269469173,
                45.48125263162125
              ]
            ]
          ]
        ]
      }
    },
    {
      "type": "Feature",
      "properties": {
        "dcbat_id": 10,
        "dcbat_dcid": "CLGXMTL11",
        "dcbat_areasqm": 1684,
        "dcbat_areapi2": 18127,
        "dcbat_nbetage": 1,
        "date_collecte": "2026-08-07"
      },
      "geometry": {
        "type": "MultiPolygon",
        "coordinates": [
          [
            [
              [
                -73.56510396110345,
                45.49966739554996
              ],
              [
                -73.56527511857286,
                45.49948559025644
              ],
              [
                -73.56492045206407,
                45.49931491536501
              ],
              [
                -73.56474753008467,
                45.499510325705025
              ],
              [
                -73.56510396110345,
                45.49966739554996
              ]
            ]
          ]
        ]
      }
    },
    {
      "type": "Feature",
      "properties": {
        "dcbat_id": 11,
        "dcbat_dcid": "CLGXMTL12",
        "dcbat_areasqm": 102,
        "dcbat_areapi2": 1094,
        "dcbat_nbetage": 1,
        "date_collecte": "2026-08-07"
      },
      "geometry": {
        "type": "MultiPolygon",
        "coordinates": [
          [
            [
              [
                -73.54144256461049,
                45.46695575374845
              ],
              [
                -73.54141401173325,
                45.46689317646941
              ],
              [
                -73.54131764577257,
                45.466920710480736
              ],
              [
                -73.5413711824174,
                45.466973275374116
              ],
              [
                -73.54144256461049,
                45.46695575374845
              ]
            ]
          ]
        ]
      }
    },
    {
      "type": "Feature",
      "properties": {
        "dcbat_id": 12,
        "dcbat_dcid": "CMPSMTL01",
        "dcbat_areasqm": 6215,
        "dcbat_areapi2": 66893,
        "dcbat_nbetage": 1,
        "date_collecte": "2026-08-07"
      },
      "geometry": {
        "type": "MultiPolygon",
        "coordinates": [
          [
            [
              [
                -73.64160405034023,
                45.43911061034281
              ],
              [
                -73.64103656190511,
                45.43859972553748
              ],
              [
                -73.64061183785617,
                45.43883262947832
              ],
              [
                -73.64116861896234,
                45.43934601649042
              ],
              [
                -73.64160405034023,
                45.43911061034281
              ]
            ]
          ]
        ]
      }
    },
    {
      "type": "Feature",
      "properties": {
        "dcbat_id": 13,
        "dcbat_dcid": "CMPSMTL02",
        "dcbat_areasqm": 28040,
        "dcbat_areapi2": 301821,
        "dcbat_nbetage": 1,
        "date_collecte": "2026-08-07"
      },
      "geometry": {
        "type": "MultiPolygon",
        "coordinates": [
          [
            [
              [
                -73.91504383077627,
                45.42448597161218
              ],
              [
                -73.91387925418029,
                45.424902078876016
              ],
              [
                -73.91308522468303,
                45.423814744502195
              ],
              [
                -73.91426038833897,
                45.42341101365135
              ],
              [
                -73.91504383077627,
                45.42448597161218
              ]
            ]
          ]
        ]
      }
    },
    {
      "type": "Feature",
      "properties": {
        "dcbat_id": 14,
        "dcbat_dcid": "EQNXGAT01",
        "dcbat_areasqm": 8872,
        "dcbat_areapi2": 95494,
        "dcbat_nbetage": 1,
        "date_collecte": "2026-08-07"
      },
      "geometry": {
        "type": "MultiPolygon",
        "coordinates": [
          [
            [
              [
                -75.39879234752867,
                45.57475778888987
              ],
              [
                -75.39871636913993,
                45.57416279864698
              ],
              [
                -75.39825100150897,
                45.57419271450802
              ],
              [
                -75.39831273394982,
                45.5742691660805
              ],
              [
                -75.39807055283573,
                45.57428910995188
              ],
              [
                -75.39805155823855,
                45.57460488697118
              ],
              [
                -75.39809904473151,
                45.57480764812116
              ],
              [
                -75.39808479878363,
                45.57492066221487
              ],
              [
                -75.39821776096389,
                45.574953901610925
              ],
              [
                -75.3982272582625,
                45.57509018292903
              ],
              [
                -75.39844094748078,
                45.5750635914783
              ],
              [
                -75.3984314501822,
                45.57492398615537
              ],
              [
                -75.3986498880498,
                45.57489074674163
              ],
              [
                -75.39861664750472,
                45.57476443678992
              ],
              [
                -75.39879234752867,
                45.57475778888987
              ]
            ]
          ]
        ]
      }
    },
    {
      "type": "Feature",
      "properties": {
        "dcbat_id": 15,
        "dcbat_dcid": "EQNXMTL01",
        "dcbat_areasqm": 67629,
        "dcbat_areapi2": 727956,
        "dcbat_nbetage": 1,
        "date_collecte": "2026-08-07"
      },
      "geometry": {
        "type": "MultiPolygon",
        "coordinates": [
          [
            [
              [
                -73.74643294837374,
                45.49012677195328
              ],
              [
                -73.74312272762515,
                45.489988230218344
              ],
              [
                -73.74323565626476,
                45.4887561833712
              ],
              [
                -73.74543070669719,
                45.488835351850305
              ],
              [
                -73.74540247453729,
                45.48917923863998
              ],
              [
                -73.74653881897338,
                45.48922129659244
              ],
              [
                -73.7464752966136,
                45.48971361970083
              ],
              [
                -73.74674703115267,
                45.48972351559859
              ],
              [
                -73.74670468291279,
                45.489980808330074
              ],
              [
                -73.74657763819324,
                45.4899709124775
              ],
              [
                -73.74657763819324,
                45.49004018340887
              ],
              [
                -73.74645412249366,
                45.490047605289305
              ],
              [
                -73.74643294837374,
                45.49012677195328
              ]
            ]
          ]
        ]
      }
    },
    {
      "type": "Feature",
      "properties": {
        "dcbat_id": 16,
        "dcbat_dcid": "EQNXVDO01",
        "dcbat_areasqm": 34808,
        "dcbat_areapi2": 374671,
        "dcbat_nbetage": 1,
        "date_collecte": "2026-08-07"
      },
      "geometry": {
        "type": "MultiPolygon",
        "coordinates": [
          [
            [
              [
                -74.05144494252662,
                45.41194367423899
              ],
              [
                -74.05035750183792,
                45.412477043512915
              ],
              [
                -74.04914659626752,
                45.411246953037654
              ],
              [
                -74.05021029370975,
                45.41072690673051
              ],
              [
                -74.05021979100835,
                45.41071690579305
              ],
              [
                -74.05144494252662,
                45.41194367423899
              ]
            ]
          ]
        ]
      }
    },
    {
      "type": "Feature",
      "properties": {
        "dcbat_id": 17,
        "dcbat_dcid": "ESTRMTL01",
        "dcbat_areasqm": 4761,
        "dcbat_areapi2": 51246,
        "dcbat_nbetage": 1,
        "date_collecte": "2026-08-07"
      },
      "geometry": {
        "type": "MultiPolygon",
        "coordinates": [
          [
            [
              [
                -73.56260012142204,
                45.50030432783178
              ],
              [
                -73.56233897394294,
                45.50060362167777
              ],
              [
                -73.56170375034512,
                45.50034143046105
              ],
              [
                -73.56198607194415,
                45.500017400006335
              ],
              [
                -73.56260012142204,
                45.50030432783178
              ]
            ]
          ]
        ]
      }
    },
    {
      "type": "Feature",
      "properties": {
        "dcbat_id": 18,
        "dcbat_dcid": "ESTRMTL01",
        "dcbat_areasqm": 25348,
        "dcbat_areapi2": 272842,
        "dcbat_nbetage": 1,
        "date_collecte": "2026-08-07"
      },
      "geometry": {
        "type": "MultiPolygon",
        "coordinates": [
          [
            [
              [
                -73.63297572774958,
                45.45767462803829
              ],
              [
                -73.63267235342892,
                45.45734666833974
              ],
              [
                -73.63237611732757,
                45.457511900181984
              ],
              [
                -73.6322297838317,
                45.457377962286415
              ],
              [
                -73.63236897910825,
                45.45732664020473
              ],
              [
                -73.63221372283826,
                45.457123854937265
              ],
              [
                -73.63200314536863,
                45.457183939537
              ],
              [
                -73.63188536475002,
                45.457063770273535
              ],
              [
                -73.63158912864867,
                45.45721398181282
              ],
              [
                -73.63162125063558,
                45.45723400998786
              ],
              [
                -73.63116440459974,
                45.45746182997789
              ],
              [
                -73.63103948576183,
                45.45734666833971
              ],
              [
                -73.63064688369978,
                45.45755445982052
              ],
              [
                -73.63091813603354,
                45.45779479599994
              ],
              [
                -73.63111800617422,
                45.4577021665521
              ],
              [
                -73.63124649412181,
                45.45779729949641
              ],
              [
                -73.63131430720524,
                45.45776475403352
              ],
              [
                -73.63192105584658,
                45.45835807990652
              ],
              [
                -73.63275979661546,
                45.457927481160105
              ],
              [
                -73.63266343065479,
                45.45783485193026
              ],
              [
                -73.63297572774958,
                45.45767462803829
              ]
            ]
          ]
        ]
      }
    },
    {
      "type": "Feature",
      "properties": {
        "dcbat_id": 19,
        "dcbat_dcid": "ESTRMTL02",
        "dcbat_areasqm": 18944,
        "dcbat_areapi2": 203916,
        "dcbat_nbetage": 1,
        "date_collecte": "2026-08-07"
      },
      "geometry": {
        "type": "MultiPolygon",
        "coordinates": [
          [
            [
              [
                -73.4282080242864,
                45.56751016366579
              ],
              [
                -73.42749516224886,
                45.56795239132034
              ],
              [
                -73.4273398853694,
                45.56783133493415
              ],
              [
                -73.42746340106896,
                45.5677374542918
              ],
              [
                -73.42744575596903,
                45.567712748833536
              ],
              [
                -73.42712108613014,
                45.567912862733145
              ],
              [
                -73.42628117937305,
                45.56724087249464
              ],
              [
                -73.4268422935511,
                45.566892521449816
              ],
              [
                -73.42668348765166,
                45.56675910983931
              ],
              [
                -73.42683170649116,
                45.56667510977381
              ],
              [
                -73.4278021869878,
                45.56743851751692
              ],
              [
                -73.42788335444753,
                45.56740392968822
              ],
              [
                -73.42792570268738,
                45.56745334086556
              ],
              [
                -73.42805627642693,
                45.56738910632655
              ],
              [
                -73.4282080242864,
                45.56751016366579
              ]
            ]
          ]
        ]
      }
    },
    {
      "type": "Feature",
      "properties": {
        "dcbat_id": 20,
        "dcbat_dcid": "ESTRMTL04",
        "dcbat_areasqm": 19483,
        "dcbat_areapi2": 209716,
        "dcbat_nbetage": 1,
        "date_collecte": "2026-08-07"
      },
      "geometry": {
        "type": "MultiPolygon",
        "coordinates": [
          [
            [
              [
                -73.87018541396787,
                45.44592236069256
              ],
              [
                -73.86932184781382,
                45.44632250489785
              ],
              [
                -73.86873384693298,
                45.44579061375043
              ],
              [
                -73.86862916341815,
                45.445846663286396
              ],
              [
                -73.86818563589479,
                45.44540213095334
              ],
              [
                -73.86884543011546,
                45.44506969578887
              ],
              [
                -73.86918288411502,
                45.44542532403125
              ],
              [
                -73.86950795397685,
                45.44526683780887
              ],
              [
                -73.86965671476109,
                45.44542145851892
              ],
              [
                -73.8694666315368,
                45.445500701468575
              ],
              [
                -73.86953825709956,
                45.44558574255901
              ],
              [
                -73.86959610851565,
                45.445562549547084
              ],
              [
                -73.86982392007586,
                45.445781344888616
              ],
              [
                -73.86974892134307,
                45.44582238683806
              ],
              [
                -73.86982841999983,
                45.445894999444725
              ],
              [
                -73.87005491617283,
                45.44578450196269
              ],
              [
                -73.87018541396787,
                45.44592236069256
              ]
            ]
          ]
        ]
      }
    },
    {
      "type": "Feature",
      "properties": {
        "dcbat_id": 21,
        "dcbat_dcid": "ESTRMTL05",
        "dcbat_areasqm": 42,
        "dcbat_areapi2": 453,
        "dcbat_nbetage": 1,
        "date_collecte": "2026-08-07"
      },
      "geometry": {
        "type": "MultiPolygon",
        "coordinates": [
          [
            [
              [
                -73.56549681110249,
                45.5024991209638
              ],
              [
                -73.56552847257089,
                45.502470878080274
              ],
              [
                -73.56545795384582,
                45.502449695908325
              ],
              [
                -73.56543780563865,
                45.50247793880246
              ],
              [
                -73.56549681110249,
                45.5024991209638
              ]
            ]
          ]
        ]
      }
    },
    {
      "type": "Feature",
      "properties": {
        "dcbat_id": 22,
        "dcbat_dcid": "EVNMPCL01",
        "dcbat_areasqm": 14600,
        "dcbat_areapi2": 157150,
        "dcbat_nbetage": 1,
        "date_collecte": "2026-08-07"
      },
      "geometry": {
        "type": "MultiPolygon",
        "coordinates": [
          [
            [
              [
                -73.83299124276154,
                45.459561363412206
              ],
              [
                -73.83221299190475,
                45.459949950966156
              ],
              [
                -73.8320415129024,
                45.45978649779756
              ],
              [
                -73.83130283412308,
                45.459046326574764
              ],
              [
                -73.83171174559021,
                45.45883969370685
              ],
              [
                -73.8318480494126,
                45.45896922484694
              ],
              [
                -73.83208108497986,
                45.458870534481484
              ],
              [
                -73.83227894536718,
                45.45904941064167
              ],
              [
                -73.83219540431477,
                45.4590802513016
              ],
              [
                -73.83244163057454,
                45.45932697597372
              ],
              [
                -73.83249879024198,
                45.45931463976573
              ],
              [
                -73.83267906303931,
                45.459493514517064
              ],
              [
                -73.83285493893915,
                45.45940716125966
              ],
              [
                -73.83299124276154,
                45.459561363412206
              ]
            ]
          ]
        ]
      }
    },
    {
      "type": "Feature",
      "properties": {
        "dcbat_id": 23,
        "dcbat_dcid": "EVNMSJM01",
        "dcbat_areasqm": 5204,
        "dcbat_areapi2": 56016,
        "dcbat_nbetage": 1,
        "date_collecte": "2026-08-07"
      },
      "geometry": {
        "type": "MultiPolygon",
        "coordinates": [
          [
            [
              [
                -74.01977601693731,
                45.78397563652448
              ],
              [
                -74.01905293379163,
                45.78397931720536
              ],
              [
                -74.01904501682287,
                45.7835670794364
              ],
              [
                -74.01976546097899,
                45.78357628120558
              ],
              [
                -74.01977601693731,
                45.78397563652448
              ]
            ]
          ]
        ]
      }
    },
    {
      "type": "Feature",
      "properties": {
        "dcbat_id": 24,
        "dcbat_dcid": "HIVDMTL02",
        "dcbat_areasqm": 17789,
        "dcbat_areapi2": 191474,
        "dcbat_nbetage": 1,
        "date_collecte": "2026-08-07"
      },
      "geometry": {
        "type": "MultiPolygon",
        "coordinates": [
          [
            [
              [
                -73.80032559203974,
                45.47433274504
              ],
              [
                -73.80001341231753,
                45.47446532380756
              ],
              [
                -73.80005298439498,
                45.47452082180369
              ],
              [
                -73.79996064954757,
                45.47457323652763
              ],
              [
                -73.79989029918764,
                45.47454240434297
              ],
              [
                -73.79947699082301,
                45.47470273151894
              ],
              [
                -73.79870753376123,
                45.47390417433209
              ],
              [
                -73.79955173808045,
                45.473494100028034
              ],
              [
                -73.80032559203974,
                45.47433274504
              ]
            ]
          ]
        ]
      }
    },
    {
      "type": "Feature",
      "properties": {
        "dcbat_id": 25,
        "dcbat_dcid": "KEELSHB01",
        "dcbat_areasqm": 12435,
        "dcbat_areapi2": 133854,
        "dcbat_nbetage": 1,
        "date_collecte": "2026-08-07"
      },
      "geometry": {
        "type": "MultiPolygon",
        "coordinates": [
          [
            [
              [
                -71.97153432080542,
                45.39856282668001
              ],
              [
                -71.97160843022516,
                45.39862527162022
              ],
              [
                -71.97140833479185,
                45.39874755942818
              ],
              [
                -71.97044861780617,
                45.39807107036446
              ],
              [
                -71.97063018588454,
                45.39793316967697
              ],
              [
                -71.97051161081296,
                45.39783950109349
              ],
              [
                -71.97069688436231,
                45.39771200749429
              ],
              [
                -71.97088956885365,
                45.39785771444133
              ],
              [
                -71.97105631504807,
                45.397758841911106
              ],
              [
                -71.97134904725606,
                45.39794878109243
              ],
              [
                -71.97137128008198,
                45.39794097538523
              ],
              [
                -71.97144168403074,
                45.39798780961226
              ],
              [
                -71.97141204026285,
                45.3980138286105
              ],
              [
                -71.97187151866525,
                45.39834166696186
              ],
              [
                -71.97153432080542,
                45.39856282668001
              ]
            ]
          ]
        ]
      }
    },
    {
      "type": "Feature",
      "properties": {
        "dcbat_id": 26,
        "dcbat_dcid": "LSWBMTL01",
        "dcbat_areasqm": 2948,
        "dcbat_areapi2": 31735,
        "dcbat_nbetage": 1,
        "date_collecte": "2026-08-07"
      },
      "geometry": {
        "type": "MultiPolygon",
        "coordinates": [
          [
            [
              [
                -73.53842309784251,
                45.46803707815841
              ],
              [
                -73.53826784157252,
                45.46772044248705
              ],
              [
                -73.53803763399978,
                45.46777550968809
              ],
              [
                -73.53794305259392,
                45.46774797609429
              ],
              [
                -73.53789843872323,
                45.4678155585278
              ],
              [
                -73.53781456464635,
                45.467835582936985
              ],
              [
                -73.53784847118807,
                45.46789565612183
              ],
              [
                -73.53780564187221,
                45.467965741423264
              ],
              [
                -73.53790022327807,
                45.467988268823085
              ],
              [
                -73.5379805282453,
                45.468149714924884
              ],
              [
                -73.53842309784251,
                45.46803707815841
              ]
            ]
          ]
        ]
      }
    },
    {
      "type": "Feature",
      "properties": {
        "dcbat_id": 27,
        "dcbat_dcid": "LSWBMTL02",
        "dcbat_areasqm": 5107,
        "dcbat_areapi2": 54968,
        "dcbat_nbetage": 1,
        "date_collecte": "2026-08-07"
      },
      "geometry": {
        "type": "MultiPolygon",
        "coordinates": [
          [
            [
              [
                -73.61848565583463,
                45.443365215830525
              ],
              [
                -73.61816749633181,
                45.443735035378516
              ],
              [
                -73.61758341246845,
                45.443498484415485
              ],
              [
                -73.61791106926985,
                45.44313199504924
              ],
              [
                -73.61848565583463,
                45.443365215830525
              ]
            ]
          ]
        ]
      }
    },
    {
      "type": "Feature",
      "properties": {
        "dcbat_id": 28,
        "dcbat_dcid": "LSWBMTL03",
        "dcbat_areasqm": 3679,
        "dcbat_areapi2": 39599,
        "dcbat_nbetage": 1,
        "date_collecte": "2026-08-07"
      },
      "geometry": {
        "type": "MultiPolygon",
        "coordinates": [
          [
            [
              [
                -73.60813687287632,
                45.59948301488042
              ],
              [
                -73.6082003952361,
                45.59951264465657
              ],
              [
                -73.60815451797626,
                45.59955215100042
              ],
              [
                -73.60732872729912,
                45.599181777934774
              ],
              [
                -73.60749812025853,
                45.59899412131504
              ],
              [
                -73.60826391759588,
                45.59933239660974
              ],
              [
                -73.60813687287632,
                45.59948301488042
              ]
            ]
          ]
        ]
      }
    },
    {
      "type": "Feature",
      "properties": {
        "dcbat_id": 30,
        "dcbat_dcid": "QSCLLVS01",
        "dcbat_areasqm": 24207,
        "dcbat_areapi2": 260566,
        "dcbat_nbetage": 1,
        "date_collecte": "2026-08-07"
      },
      "geometry": {
        "type": "MultiPolygon",
        "coordinates": [
          [
            [
              [
                -71.3250657772452,
                46.67695559350055
              ],
              [
                -71.32384799971393,
                46.676120056471156
              ],
              [
                -71.32454739897176,
                46.67563171296861
              ],
              [
                -71.32488064214755,
                46.67585471430626
              ],
              [
                -71.32500817965928,
                46.67577003036235
              ],
              [
                -71.32590094224133,
                46.67643902990224
              ],
              [
                -71.3250657772452,
                46.67695559350055
              ]
            ]
          ]
        ]
      }
    },
    {
      "type": "Feature",
      "properties": {
        "dcbat_id": 31,
        "dcbat_dcid": "SMRTMTL01",
        "dcbat_areasqm": 4205,
        "dcbat_areapi2": 45263,
        "dcbat_nbetage": 1,
        "date_collecte": "2026-08-07"
      },
      "geometry": {
        "type": "MultiPolygon",
        "coordinates": [
          [
            [
              [
                -73.56483138635059,
                45.54208054334049
              ],
              [
                -73.56457376789147,
                45.542006393087
              ],
              [
                -73.56452436161165,
                45.5420755999933
              ],
              [
                -73.56425968511256,
                45.5419841479919
              ],
              [
                -73.56448201337179,
                45.541615866804904
              ],
              [
                -73.56483138635059,
                45.54171720616405
              ],
              [
                -73.56489137969038,
                45.54164305543139
              ],
              [
                -73.56509253382968,
                45.54166530066146
              ],
              [
                -73.56483138635059,
                45.54208054334049
              ]
            ]
          ]
        ]
      }
    },
    {
      "type": "Feature",
      "properties": {
        "dcbat_id": 32,
        "dcbat_dcid": "UBCNMTL01",
        "dcbat_areasqm": 578,
        "dcbat_areapi2": 6222,
        "dcbat_nbetage": 1,
        "date_collecte": "2026-08-07"
      },
      "geometry": {
        "type": "MultiPolygon",
        "coordinates": [
          [
            [
              [
                -73.56290452837727,
                45.49742980077177
              ],
              [
                -73.56276924755775,
                45.49736523977617
              ],
              [
                -73.56292899405742,
                45.4972048457323
              ],
              [
                -73.56307003150756,
                45.49727243321529
              ],
              [
                -73.56290452837727,
                45.49742980077177
              ]
            ]
          ]
        ]
      }
    },
    {
      "type": "Feature",
      "properties": {
        "dcbat_id": 33,
        "dcbat_dcid": "VNTGMTL01",
        "dcbat_areasqm": 12255,
        "dcbat_areapi2": 131916,
        "dcbat_nbetage": 1,
        "date_collecte": "2026-08-07"
      },
      "geometry": {
        "type": "MultiPolygon",
        "coordinates": [
          [
            [
              [
                -73.75678476497373,
                45.48697334406183
              ],
              [
                -73.75599772032196,
                45.48706582015966
              ],
              [
                -73.75594495755202,
                45.48691785833025
              ],
              [
                -73.75572511267721,
                45.48693018849755
              ],
              [
                -73.75566355611227,
                45.4866280986219
              ],
              [
                -73.75557561816235,
                45.486631181179824
              ],
              [
                -73.75546569572495,
                45.48649246590586
              ],
              [
                -73.75543931433997,
                45.48644314483722
              ],
              [
                -73.75658250768893,
                45.48628285106598
              ],
              [
                -73.75678476497373,
                45.48697334406183
              ]
            ]
          ]
        ]
      }
    },
    {
      "type": "Feature",
      "properties": {
        "dcbat_id": 34,
        "dcbat_dcid": "VNTGMTL02",
        "dcbat_areasqm": 14951,
        "dcbat_areapi2": 160933,
        "dcbat_nbetage": 1,
        "date_collecte": "2026-08-07"
      },
      "geometry": {
        "type": "MultiPolygon",
        "coordinates": [
          [
            [
              [
                -73.8016160814548,
                45.47527081019704
              ],
              [
                -73.80110823979402,
                45.47549279868065
              ],
              [
                -73.80095631507245,
                45.475566240867444
              ],
              [
                -73.8008238336305,
                45.47543422810959
              ],
              [
                -73.80022886029481,
                45.47569628735576
              ],
              [
                -73.7998615999995,
                45.47528754690481
              ],
              [
                -73.80035317587621,
                45.47506507968228
              ],
              [
                -73.8004682255495,
                45.47520442738598
              ],
              [
                -73.80057401674824,
                45.47517523155283
              ],
              [
                -73.80038055325844,
                45.47499948975175
              ],
              [
                -73.80105327857531,
                45.47472508479089
              ],
              [
                -73.8016160814548,
                45.47527081019704
              ]
            ]
          ]
        ]
      }
    },
    {
      "type": "Feature",
      "properties": {
        "dcbat_id": 35,
        "dcbat_dcid": "VNTGMTL03",
        "dcbat_areasqm": 29877,
        "dcbat_areapi2": 321589,
        "dcbat_nbetage": 1,
        "date_collecte": "2026-08-07"
      },
      "geometry": {
        "type": "MultiPolygon",
        "coordinates": [
          [
            [
              [
                -73.82309382649814,
                45.472090420847344
              ],
              [
                -73.82203417420162,
                45.47264233841362
              ],
              [
                -73.822161684229,
                45.47277800447383
              ],
              [
                -73.82159888134952,
                45.47304625231346
              ],
              [
                -73.82071070805533,
                45.472170587980216
              ],
              [
                -73.82196822073918,
                45.47156624832225
              ],
              [
                -73.8223859260013,
                45.47196708657415
              ],
              [
                -73.82278604367343,
                45.471763584433276
              ],
              [
                -73.82309382649814,
                45.472090420847344
              ]
            ]
          ]
        ]
      }
    },
    {
      "type": "Feature",
      "properties": {
        "dcbat_id": 36,
        "dcbat_dcid": "VNTGQBC01",
        "dcbat_areasqm": 41566,
        "dcbat_areapi2": 447413,
        "dcbat_nbetage": 1,
        "date_collecte": "2026-08-07"
      },
      "geometry": {
        "type": "MultiPolygon",
        "coordinates": [
          [
            [
              [
                -71.30802880812938,
                46.7961769192584
              ],
              [
                -71.30744532218746,
                46.79632058162556
              ],
              [
                -71.30739925750784,
                46.79626101434913
              ],
              [
                -71.30703074007084,
                46.79632408558095
              ],
              [
                -71.30691813752065,
                46.79613136769602
              ],
              [
                -71.30726106346896,
                46.79602975253335
              ],
              [
                -71.3071382243233,
                46.79607180021016
              ],
              [
                -71.30666734093158,
                46.79527989677976
              ],
              [
                -71.30587400478247,
                46.795493641774264
              ],
              [
                -71.30649843710627,
                46.79625751038964
              ],
              [
                -71.30653938348816,
                46.79624699850981
              ],
              [
                -71.30667245922932,
                46.79641518834083
              ],
              [
                -71.3060480269055,
                46.796520306718264
              ],
              [
                -71.3060326720123,
                46.79642219623904
              ],
              [
                -71.30577675712549,
                46.79648176333706
              ],
              [
                -71.30533146522244,
                46.7957038819242
              ],
              [
                -71.30565903627755,
                46.795591753946454
              ],
              [
                -71.30562832649113,
                46.795553209900135
              ],
              [
                -71.30573069244586,
                46.795525177849115
              ],
              [
                -71.30561297159792,
                46.795349977199365
              ],
              [
                -71.306232285624,
                46.794789331287106
              ],
              [
                -71.30606850009644,
                46.7947157460775
              ],
              [
                -71.30633465157872,
                46.79447396539462
              ],
              [
                -71.30689766432971,
                46.79477181100821
              ],
              [
                -71.30674411539762,
                46.794883940694476
              ],
              [
                -71.30694884730705,
                46.795227336405176
              ],
              [
                -71.3071382243233,
                46.79518178403901
              ],
              [
                -71.30718940730065,
                46.795234344458095
              ],
              [
                -71.30740437580558,
                46.795167767918585
              ],
              [
                -71.30802880812938,
                46.7961769192584
              ]
            ]
          ]
        ]
      }
    },
    {
      "type": "Feature",
      "properties": {
        "dcbat_id": 37,
        "dcbat_dcid": "VNTGQBC02",
        "dcbat_areasqm": 25647,
        "dcbat_areapi2": 276066,
        "dcbat_nbetage": 1,
        "date_collecte": "2026-08-07"
      },
      "geometry": {
        "type": "MultiPolygon",
        "coordinates": [
          [
            [
              [
                -71.30395976142916,
                46.79552868185628
              ],
              [
                -71.30260341252907,
                46.794600111973395
              ],
              [
                -71.30337115718949,
                46.79408150748075
              ],
              [
                -71.3047326243873,
                46.79502059843367
              ],
              [
                -71.30395976142916,
                46.79552868185628
              ]
            ]
          ]
        ]
      }
    },
    {
      "type": "Feature",
      "properties": {
        "dcbat_id": 38,
        "dcbat_dcid": "GGLEBHS01",
        "dcbat_areasqm": 1401667,
        "dcbat_areapi2": 15087405,
        "dcbat_nbetage": 0,
        "date_collecte": "2026-08-07"
      },
      "geometry": {
        "type": "MultiPolygon",
        "coordinates": [
          [
            [
              [
                -73.89850925830375,
                45.28661945660493
              ],
              [
                -73.89748560965047,
                45.28202107699091
              ],
              [
                -73.91571442989921,
                45.27913997455133
              ],
              [
                -73.91445455463364,
                45.28210418354412
              ],
              [
                -73.91091115544921,
                45.28504053694988
              ],
              [
                -73.89850925830375,
                45.28661945660493
              ]
            ]
          ]
        ]
      }
    },
    {
      "type": "Feature",
      "properties": {
        "dcbat_id": 39,
        "dcbat_dcid": "ARGOBCO01",
        "dcbat_areasqm": 8472,
        "dcbat_areapi2": 91196,
        "dcbat_nbetage": 1,
        "date_collecte": "2026-08-07"
      },
      "geometry": {
        "type": "MultiPolygon",
        "coordinates": [
          [
            [
              [
                -68.18640439584757,
                49.21584799923322
              ],
              [
                -68.18576960140634,
                49.215840756353494
              ],
              [
                -68.18582226994076,
                49.21512913824377
              ],
              [
                -68.18644320424137,
                49.21513819197363
              ],
              [
                -68.18640439584757,
                49.21584799923322
              ]
            ]
          ]
        ]
      }
    },
    {
      "type": "Feature",
      "properties": {
        "dcbat_id": 40,
        "dcbat_dcid": "KEELBCO01",
        "dcbat_areasqm": 3491,
        "dcbat_areapi2": 37575,
        "dcbat_nbetage": 1,
        "date_collecte": "2026-08-07"
      },
      "geometry": {
        "type": "MultiPolygon",
        "coordinates": [
          [
            [
              [
                -68.19035975113387,
                49.22188421593291
              ],
              [
                -68.1901476513642,
                49.22182671328573
              ],
              [
                -68.19007561748016,
                49.22189205719776
              ],
              [
                -68.18993154971207,
                49.22185023710402
              ],
              [
                -68.19024769842537,
                49.22140328264172
              ],
              [
                -68.1906278772578,
                49.221510447530335
              ],
              [
                -68.19035975113387,
                49.22188421593291
              ]
            ]
          ]
        ]
      }
    },
    {
      "type": "Feature",
      "properties": {
        "dcbat_id": 41,
        "dcbat_dcid": "MWCAESC01",
        "dcbat_areasqm": 13053,
        "dcbat_areapi2": 140497,
        "dcbat_nbetage": 1,
        "date_collecte": "2026-08-07"
      },
      "geometry": {
        "type": "MultiPolygon",
        "coordinates": [
          [
            [
              [
                -69.45208665719954,
                48.34455796883912
              ],
              [
                -69.45114702134606,
                48.34405834358602
              ],
              [
                -69.45173971473056,
                48.34359234254151
              ],
              [
                -69.45261429887114,
                48.34410638468857
              ],
              [
                -69.45208665719954,
                48.34455796883912
              ]
            ]
          ]
        ]
      }
    },
    {
      "type": "Feature",
      "properties": {
        "dcbat_id": 42,
        "dcbat_dcid": "MSFTAUG01",
        "dcbat_areasqm": 70320,
        "dcbat_areapi2": 756914,
        "dcbat_nbetage": 0,
        "date_collecte": "2026-08-07"
      },
      "geometry": {
        "type": "MultiPolygon",
        "coordinates": [
          [
            [
              [
                -71.434840463674,
                46.76149434827068
              ],
              [
                -71.4357511876551,
                46.75989996597888
              ],
              [
                -71.43286000041357,
                46.75904828902481
              ],
              [
                -71.43277326479632,
                46.759464225963335
              ],
              [
                -71.43287445634978,
                46.75970190277231
              ],
              [
                -71.43280217666874,
                46.75995938479888
              ],
              [
                -71.4327443529239,
                46.76012773776636
              ],
              [
                -71.434840463674,
                46.76149434827068
              ]
            ]
          ]
        ]
      }
    },
    {
      "type": "Feature",
      "properties": {
        "dcbat_id": 43,
        "dcbat_dcid": "MSFTDNA01",
        "dcbat_areasqm": 30130,
        "dcbat_areapi2": 324319,
        "dcbat_nbetage": 1,
        "date_collecte": "2026-08-07"
      },
      "geometry": {
        "type": "MultiPolygon",
        "coordinates": [
          [
            [
              [
                -71.71662543790941,
                46.68352856616794
              ],
              [
                -71.7164632818869,
                46.682956404386594
              ],
              [
                -71.71398047484325,
                46.68310764262572
              ],
              [
                -71.71405275452429,
                46.6838340761357
              ],
              [
                -71.71662543790941,
                46.68352856616794
              ]
            ]
          ]
        ]
      }
    },
    {
      "type": "Feature",
      "properties": {
        "dcbat_id": 44,
        "dcbat_dcid": "MSFTLVS01",
        "dcbat_areasqm": 416068,
        "dcbat_areapi2": 4478514,
        "dcbat_nbetage": 0,
        "date_collecte": "2026-08-07"
      },
      "geometry": {
        "type": "MultiPolygon",
        "coordinates": [
          [
            [
              [
                -71.26295056054333,
                46.70971973906679
              ],
              [
                -71.2604063157708,
                46.71136516599129
              ],
              [
                -71.25366984949808,
                46.705318471135776
              ],
              [
                -71.25606953490852,
                46.704346971759534
              ],
              [
                -71.26295056054333,
                46.70971973906679
              ]
            ]
          ]
        ]
      }
    },
    {
      "type": "Feature",
      "properties": {
        "dcbat_id": 45,
        "dcbat_dcid": "MSFTALO01",
        "dcbat_areasqm": 254040,
        "dcbat_areapi2": 2734458,
        "dcbat_nbetage": 0,
        "date_collecte": "2026-08-07"
      },
      "geometry": {
        "type": "MultiPolygon",
        "coordinates": [
          [
            [
              [
                -71.35062219965816,
                46.79064421829093
              ],
              [
                -71.34815023456666,
                46.792237690574325
              ],
              [
                -71.344969928601,
                46.792692959704205
              ],
              [
                -71.34472417768546,
                46.79243563414749
              ],
              [
                -71.34525904732513,
                46.79151519035403
              ],
              [
                -71.34551925417688,
                46.79056503831356
              ],
              [
                -71.34589510851828,
                46.78972374386008
              ],
              [
                -71.34629987473208,
                46.78921896087593
              ],
              [
                -71.34651671377522,
                46.788041115502715
              ],
              [
                -71.34910432635637,
                46.78968415320888
              ],
              [
                -71.34930670946328,
                46.78957527876792
              ],
              [
                -71.35062219965816,
                46.79064421829093
              ]
            ]
          ]
        ]
      }
    },
    {
      "type": "Feature",
      "properties": {
        "dcbat_id": 46,
        "dcbat_dcid": "CLGXMTL07",
        "dcbat_areasqm": 2912,
        "dcbat_areapi2": 31340,
        "dcbat_nbetage": -1,
        "date_collecte": "2026-08-07"
      },
      "geometry": {
        "type": "MultiPolygon",
        "coordinates": [
          [
            [
              [
                -73.56791706298169,
                45.50271588590551
              ],
              [
                -73.56806885031186,
                45.50256897445635
              ],
              [
                -73.56741833318252,
                45.5022510871636
              ],
              [
                -73.56726654585235,
                45.50240939779272
              ],
              [
                -73.5674653149752,
                45.50249931803181
              ],
              [
                -73.56741291220645,
                45.50255884261812
              ],
              [
                -73.56761348832133,
                45.50266016091821
              ],
              [
                -73.56767131206615,
                45.50260696883341
              ],
              [
                -73.56791706298169,
                45.50271588590551
              ]
            ]
          ]
        ]
      }
    },
    {
      "type": "Feature",
      "properties": {
        "dcbat_id": 47,
        "dcbat_dcid": "KEELSHB02",
        "dcbat_areasqm": 2898,
        "dcbat_areapi2": 31190,
        "dcbat_nbetage": 1,
        "date_collecte": "2026-08-07"
      },
      "geometry": {
        "type": "MultiPolygon",
        "coordinates": [
          [
            [
              [
                -71.97008761063815,
                45.40730234634174
              ],
              [
                -71.97006752979847,
                45.40709557528953
              ],
              [
                -71.96924421537156,
                45.40714256877693
              ],
              [
                -71.96927768343768,
                45.40733524166661
              ],
              [
                -71.97008761063815,
                45.40730234634174
              ]
            ]
          ]
        ]
      }
    },
    {
      "type": "Feature",
      "properties": {
        "dcbat_id": 48,
        "dcbat_dcid": "KEELSHB03",
        "dcbat_areasqm": 16218,
        "dcbat_areapi2": 174574,
        "dcbat_nbetage": 1,
        "date_collecte": "2026-08-07"
      },
      "geometry": {
        "type": "MultiPolygon",
        "coordinates": [
          [
            [
              [
                -71.98422263901361,
                45.40433323657659
              ],
              [
                -71.98362021382317,
                45.404013664198814
              ],
              [
                -71.98321859702955,
                45.40438023236203
              ],
              [
                -71.98257601015978,
                45.40404656143881
              ],
              [
                -71.98239528260264,
                45.40424864406429
              ],
              [
                -71.98301778863274,
                45.40456351555166
              ],
              [
                -71.98280359300949,
                45.40477499541618
              ],
              [
                -71.98343948626605,
                45.405099263004196
              ],
              [
                -71.98422263901361,
                45.40433323657659
              ]
            ]
          ]
        ]
      }
    },
    {
      "type": "Feature",
      "properties": {
        "dcbat_id": 49,
        "dcbat_dcid": "KEELSHB04",
        "dcbat_areasqm": 29347,
        "dcbat_areapi2": 315890,
        "dcbat_nbetage": 0,
        "date_collecte": "2026-08-07"
      },
      "geometry": {
        "type": "MultiPolygon",
        "coordinates": [
          [
            [
              [
                -71.96904325007256,
                45.39800298533644
              ],
              [
                -71.96834042068373,
                45.39700655385046
              ],
              [
                -71.96668709821665,
                45.39799358512151
              ],
              [
                -71.96795888472978,
                45.39841659324548
              ],
              [
                -71.96904325007256,
                45.39800298533644
              ]
            ]
          ]
        ]
      }
    },
    {
      "type": "Feature",
      "properties": {
        "dcbat_id": 50,
        "dcbat_dcid": "AWSDVAR01",
        "dcbat_areasqm": 30540,
        "dcbat_areapi2": 328733,
        "dcbat_nbetage": 1,
        "date_collecte": "2026-08-07"
      },
      "geometry": {
        "type": "MultiPolygon",
        "coordinates": [
          [
            [
              [
                -73.38379924033067,
                45.623611438811224
              ],
              [
                -73.38322358959316,
                45.62395785427962
              ],
              [
                -73.38112179503986,
                45.62236619796447
              ],
              [
                -73.38176438190966,
                45.62199168402907
              ],
              [
                -73.38379924033067,
                45.623611438811224
              ]
            ]
          ]
        ]
      }
    },
    {
      "type": "Feature",
      "properties": {
        "dcbat_id": 29,
        "dcbat_dcid": "OVHCBHS01",
        "dcbat_areasqm": 50498,
        "dcbat_areapi2": 543557,
        "dcbat_nbetage": 1,
        "date_collecte": "2026-08-07"
      },
      "geometry": {
        "type": "MultiPolygon",
        "coordinates": [
          [
            [
              [
                -73.89607491691692,
                45.30792193596727
              ],
              [
                -73.89622901299938,
                45.30880828353854
              ],
              [
                -73.89263974171033,
                45.30912977564273
              ],
              [
                -73.892608347791,
                45.308975224108245
              ],
              [
                -73.89607961830016,
                45.3086724280436
              ],
              [
                -73.8960661637633,
                45.308568341522815
              ],
              [
                -73.89259937809976,
                45.308880600511806
              ],
              [
                -73.89247380242243,
                45.30825608081355
              ],
              [
                -73.89607491691692,
                45.30792193596727
              ]
            ]
          ]
        ]
      }
    }
  ],
  "metadata": {
    "date": "2026-08-07",
    "source": "Empreinte bâtiments"
  }
}